County,Market Name,Market Location,Address Line 1,City,State,Zip,Contact,Phone,Market Link,Operation Hours,Operation Season,Operating Months,FMNP,SNAP,FCC Issued,FCC Accepted,Latitude,Longitude,Georeference
Albany,Altamont Orchards Farm Stand,6654 Dunnsville Road Altamont,6654 Dunnsville Road,Altamont,NY,12009,Jim Abbruzzese,5188616515,http://www.altamontorchards.com,"Mon-Fri 10am-5pm, Sat-Sun 10am-4:30pm",June 14-November 20,M,Y,N,N,Y,42.72256,-74.01493,"(42.72256, -74.01493)"
Albany,Empire State Plaza Wed Farmers' Market,"Empire State Plaza, (Winter inside South Concourse)",170 State St,Albany,NY,12210,Nicholas DeBlois,5184863966,https://empirestateplaza.ny.gov/empire-state-plaza-farmers-market,Wednesday  10am-2pm,Year-round,YR,N,Y,N,Y,42.65068,-73.758,"(42.65068, -73.758)"
Albany,New Covenant Farmers' Market,"New Covenant Presbyterian Church, 916 Western Ave. Albany",916 Western Ave,Albany,NY,12203,Katy Stenta,5184828063,,Tuesday  3pm-6pm,May 17-September 27,M,N,N,N,Y,42.67228,-73.81026,"(42.67228, -73.81026)"
Albany,The Gade Farm Farm Stand,2479 Western Avenue Altamont,2479 Western Avenue,Altamont,NY,12009,Amy Castillo,5188698019,http://www.gadefarm.com,"Sunday  9am-4pm, Mon-Sat 9am-6pm",Year-round,YR,N,N,N,Y,42.71055,-73.92593,"(42.71055, -73.92593)"
Albany,Veggie Mobile-Arbor Hill/Oak Street Park,Oak Street & Second Street Albany,Second Street & Oak Street,Albany,NY,12210,Audrey Bridge,5182748685,http://www.capitalroots.org,Thu 12:45pm-1:30pm,Year-round,YR,N,Y,N,Y,42.6629,-73.76094,"(42.6629, -73.76094)"
Albany,Veggie Mobile-Center for Disability,700 South Pearl Street Albany,700 South Pearl Street,Albany,NY,12202,Audrey Bridge,5182748685,http://www.capitalroots.org,Tue 12:15pm-1pm,Year-round,YR,N,Y,N,Y,42.63003,-73.76585,"(42.63003, -73.76585)"
Albany,Veggie Mobile-Cohoes Senior Ctr,100 Cayuga Plaza Cohoes,100 Cayuga Plaza,Cohoes,NY,12047,Audrey Bridge,5182748685,http://www.capitalroots.org,Wednesday 3pm-4pm,Year-round,YR,N,Y,N,Y,42.77712,-73.70101,"(42.77712, -73.70101)"
Albany,Veggie Mobile-Howe Library,Schuyler & Broad St. Albany,Schuyler St and Broad Street,Albany,NY,12202,Audrey Bridge,5182748685,http://www.capitalroots.org,Tue 3pm-3:45pm,Year-round,YR,N,Y,N,Y,42.64112,-73.75802,"(42.64112, -73.75802)"
Albany,Veggie Mobile-Koinonia Primary Care,553 Clinton Ave. & N. Lake Ave. Albany,553 Clinton Avenue,Albany,NY,12206,Audrey Bridge,5182748685,http://www.capitalroots.org,Tue 2pm-2:45pm,Year-round,YR,N,Y,N,Y,42.66508,-73.76804,"(42.66508, -73.76804)"
Albany,Veggie Mobile-South Mall Towers,101 S. Pearl St. Albany,101 South Pearl Street,Albany,NY,12207,Audrey Bridge,5182748685,http://www.capitalroots.org,Fri  11am-12:15pm,Year-round,YR,N,Y,N,Y,42.6465,-73.75482,"(42.6465, -73.75482)"
Albany,Veggie Mobile Sprout-Creighton Storey Homes,158 3rd Street Albany,158 3rd Street,Albany,NY,12202,Audrey Bridge,5182748685,http://www.capitalroots.org,Thu 3:45pm-4:15pm,Year-round,YR,N,Y,N,Y,42.66205,-73.7578,"(42.66205, -73.7578)"
Albany,Veggie Mobile Sprout-Robert Whalen,305 Colonie Street Albany,305 Colonie Street,Albany,NY,12210,Audrey Bridge,5182748685,http://www.capitalroots.org,Wed 11:15am-12pm,Year-round,YR,N,Y,N,Y,42.66338,-73.75595,"(42.66338, -73.75595)"
Albany,Veggie Mobile Sprout-St. Sophia Church,440 Whitehall Rd. Albany,440 Whitehall Road,Albany,NY,12208,Audrey Bridge,5182748685,http://www.capitalroots.org,Wed 12:15pm-1:15pm,Year-round,YR,N,Y,N,Y,42.65197,-73.81477,"(42.65197, -73.81477)"
Albany,Veggie Mobile-Steamboat Square Apts,20 Rensselaer St. Albany,20 Rensselaer Street,Albany,NY,12202,Audrey Bridge,5182748685,http://www.capitalroots.org,Wed 11am-11:45am,Year-round,YR,N,Y,N,Y,42.64093,-73.75363,"(42.64093, -73.75363)"
Albany,Veggie Mobile-Thurlow Terrace,2 Thurlow Terrace Albany,2 Thurlow Terrace,Albany,NY,12203,Audrey Bridge,5182748685,http://www.capitalroots.org,Wed 12pm-1pm,Year-round,YR,N,Y,N,Y,42.65998,-73.77276,"(42.65998, -73.77276)"
Albany,Veggie Mobile-Whitney Young Health Ctr,920 Lark Drive Albany,920 Lark Drive,Albany,NY,12207,Audrey Bridge,5182748685,http://www.capitalroots.org,Tue 11am-12pm,Year-round,YR,N,Y,N,Y,42.66215,-73.74859,"(42.66215, -73.74859)"
Allegany,Alfred Farmers' Market,3 South Main St.,3 South Main Street,Alfred,NY,14802,Amanda Khodarkavskaya,6075878834,http://www.alfredfarmersmarket.com,Sunday  11am-3pm,June 12-October 30,M,Y,Y,N,Y,42.25359,-77.79036,"(42.25359, -77.79036)"
Allegany,Backporch Produce,10260 Fairview Rd Farmersville Station,10260 Fairview Rd,Farmersville Station,NY,14060,Cheri Stresing,7169468308,http://www.backporchproduce.com,Daily  9am-8pm,Year-round,YR,N,N,N,Y,42.44791997,-78.29298113,"(42.44791997, -78.29298113)"
Allegany,Belmont Farmers' Market,5429 NYS Route 19N,5429 NYS Route 19 N,Belmont,NY,14813,Debra Wagoner,5856108836,,Thursday 11am-4pm,June 2-October 13,M,Y,Y,N,Y,42.2356,-78.05212,"(42.2356, -78.05212)"
Allegany,Fillmore Farmers' Market,"Fillmore Central School , 35 S Genesee St",35 South Genesee Street,Fillmore,NY,14735,Debra Wagoner,5856108836,,Sat 9am-1pm,May 28-October 1,M,Y,Y,N,Y,42.46481,-78.11218,"(42.46481, -78.11218)"
Allegany,Wagoner Bees & Produce Farm Stand,11137 Wayne Rd.  Fillmore,11137 Wayne Rd.,Fillmore,ny,14735,Terry Wagoner,5856108836,,"M/W 2-6, T 3-7, F 1-6, Sat 12-6  Sun 1-5",May 15-October 31,P/M,Y,Y,N,Y,42.48057,-78.09042,"(42.48057, -78.09042)"
Bronx,170 Farm Stand,1411 Townsend Ave. and 170th St.,1406 Townsend Ave. and 170th Street,Bronx,NY,10452,Gus Stavroulakis,7187585901,http://www.newsettlement.org/170FarmStand,Wed  2:30-6pm,July 13-November 23,M,Y,Y,N,Y,40.84009,-73.9166,"(40.84009, -73.9166)"
Bronx,Harvest Home Co-op City Farm Stand,Asch Loop & Aldrich St.,199 Aldrich St.,Bronx,NY,10475,Maritza Owens,2128283361,http://www.harvesthomefm.org,Wed 8am-4pm,June 15-November 23,M,Y,Y,N,Y,40.87025,-73.83097,"(40.87025, -73.83097)"
Bronx,Harvest Home Hunts Point Farmers' Market,"Monsignor Del Valle Park, E 163 St btwn Southern & Bruckner Blvds",925 Hunts Point Ave.,Bronx,NY,10474,Maritza Owens,2128283361,http://www.harvesthomefm.org,Wed 8am-4pm,June 15-November 23,M,Y,Y,N,Y,40.82073,-73.89088,"(40.82073, -73.89088)"
Bronx,Harvest Home Jacobi Hospital Fri Farmers Market,1400 Pelham Parkway,1400 Pelham Parkway,Bronx,NY,10461,Maritza Owens,2128283361,http://www.harvesthomefm.org,Fri  8am-4pm,June 24-November 18,M,Y,Y,N,Y,40.85738,-73.84631,"(40.85738, -73.84631)"
Bronx,Harvest Home Mt. Eden Farmers' Market,"Claremont Park, Mt. Eden PKWY  & Morris Ave",Mt Eden Pkwy and Morris Ave,Bronx,NY,10457,Maritza Owens,2128283361,http://www.harvesthomefm.org,Tue/Thu 8am-4pm,June 7-November 22,M,Y,Y,N,Y,40.84305,-73.90947,"(40.84305, -73.90947)"
Bronx,Harvest Home N Central Bronx Farmers' Market,E. Mosholu Parkway N. & Jerome Ave.,Jerome Ave and East Mosholu Pkwy North,Bronx,NY,10467,Maritza Owens,2128283361,http://www.harvesthomefm.org,Wed 8am-4pm,June 15-November 23,M,Y,Y,N,Y,40.88046,-73.88385,"(40.88046, -73.88385)"
Bronx,Harvest Home St. Marys Park Farm Stand,E 149th St. & Eagle Ave,646 E 149th St,Bronx,NY,10455,Maritza Owens,2128283361,http://www.harvesthomefm.org,Thursday  8am-4pm,July 7-November 17,M,Y,Y,N,Y,40.81099,-73.91173,"(40.81099, -73.91173)"
Bronx,Healthy Choice Farmers' Market Farm Stand,1434 Longfellow Ave. Bronx,1434 Longfellow Ave.,Bronx,NY,10459,Sandy Helms,7185893060,,Thu  10:30am-1:30pm,April 7-June 24; July 18-August 8,P/M,Y,N,N,Y,40.830746,-73.886882,"(40.830746, -73.886882)"
Bronx,La Familia Verde Farmers' Market,Walter Gladwin Park,East Tremont Ave and Arthur Ave,Bronx,NY,10457,Aleyna Rodriguez,7185831765,http://www.lafamiliaverde.org,Tue 8am-2pm,July 12-November 15,M,Y,Y,N,Y,40.84643,-73.89334,"(40.84643, -73.89334)"
Bronx,Lincoln Hospital Fri Greenmarket,234 E 149th St btwn Park and Morris Aves Bronx,East 149th St and Morris Ave,Bronx,NY,10451,Siobahn Keys,2127887476,http://www.grownyc.org/greenmarket,Friday  8am-3pm,Year-round,YR,N,Y,N,Y,40.8174,-73.92276,"(40.8174, -73.92276)"
Bronx,New Roots Community Farm Stand,670 Grand Concourse Bronx,670 Grand Concourse,Bronx,NY,10451,Sheryll Durrant,2123774747,,Sat 10am-3pm,July 9-October 29,M,Y,Y,N,Y,40.82172,-73.92524,"(40.82172, -73.92524)"
Bronx,Norwood GrowNYC Farm Stand,E Gun Hill Rd. & Dekalb Ave.,Dekalb Ave. and East Gun Hill Rd.,Bronx,NY,10467,Siobahn Keys,2127887476,https://www.grownyc.org/farmstands,Thursday  8:30am-4pm,Year-round,YR,N,Y,N,Y,40.88223,-73.88048,"(40.88223, -73.88048)"
Bronx,Riverdale Y Sunday Farmers' Market,4545 Independence Ave. Bronx,649 W 237th St,Bronx,NY,10463,Shira Silverman,7188771270,,Sun 9am-2pm,April 3-December 18,P/M/X,Y,Y,N,Y,40.888442,-73.912784,"(40.888442, -73.912784)"
Bronx,Van Cortlandt Park Alliance Farm Stand,Corner of Gale Place and Orloff Ave,98 Van Cortlandt Park South,Bronx,NY,10563,Sara Kempton,7186011553,,Wed 2p-7p,July 6-October 26,M,Y,Y,N,Y,,,
Broome,Broome Co Regional Sat Farmers' Market,840 Upper Front St. Binghamton,840 Upper Front St.,Binghamton,NY,13905,Amanda Poodiack,6077728953,http://www.broomecountyregionalmarket.com,Saturday  9am-1pm,Year-round,YR,N,Y,Y,Y,42.12921,-75.90609,"(42.12921, -75.90609)"
Broome,Russell Farms Farm Stand,2911 Old Vestal Rd Vestal,2909 Old Vestal Rd,Vestal,NY,13850,Allison Russell,6079725793,http://www.russell-farm.com,"Mon-Fri 8am-7pm, Sat 8am-6pm",May 1-November 20,M,Y,Y,N,Y,42.1009,-76.0078,"(42.1009, -76.0078)"
Cattaraugus,Canticle Farm Market,3809 Old State Road Allegany,3809 Old State Road,Allegany,NY,14706,Mark Printz,7163789714,http://www.canticlefarm.org,"Tue/Fri 12pm-6pm, Dec-June: Tue only",Year-round,YR,Y,Y,N,Y,42.09601,-78.50618,"(42.09601, -78.50618)"
Cattaraugus,Enchanted Mountains Farmers Market,1900 Constituion Ave Olean,1900 Constituion Ave,Olean,NY,14760,Tammy Gardner,7165435475,,Fri 2pm-6pm,May 27-October 28,P/M,Y,Y,N,Y,42.08304,-78.45343,"(42.08304, -78.45343)"
Cattaraugus,Little Valley Farmers' Market,103 Rock City St. Little Valley,103 Rock City Street,Little Valley,NY,14475,Tina Armstrong,7162006946,,Thu 2pm-6pm,May 5-October 27,M,Y,Y,N,Y,42.2489,-78.7989,"(42.2489, -78.7989)"
Cattaraugus,Miller's Farm Market,1685 Olean Portville Rd. Olean,1685 Olean Portville Rd.,Olean,NY,14760,Shanna Miller,7163722521,,"Mon-Sat  9am-6pm, Sun  9am-5pm",April 15-December 24,P/M/X,Y,Y,N,Y,42.071439,-78.39814,"(42.071439, -78.39814)"
Cattaraugus,Putt Farm Stand,3508 West Branch Road  Allegany NY,3508 West Branch Road,Allegany,NY,14706,Pamela Putt,7165449537,,"Mon-Wed 10-5p; Thu 10a-6p, Fri 9-1; Sat 10-7; Sun 1-5",July 25-October 29,M,Y,N,N,Y,42.06489,-78.49288,"(42.06489, -78.49288)"
Cattaraugus,South Dayton Farmers' Market,Railroad St.,Railroad Street,South Dayton,NY,14138,Karen Strickland,7166729004,,Sat 9am-1pm,May 7-October 29,P/M,Y,Y,N,Y,42.3609,-79.04925,"(42.3609, -79.04925)"
Cayuga,Centurion Farm Stand,287 Creek Road Locke,287 Creek Road,Locke,NY,13092,Jeff Saeli,6075925810,,"Thu-Sat 9am-7pm, Mon-Wed By Appt",May 1-November 30,P/M,Y,N,N,Y,42.6309,-76.45455,"(42.6309, -76.45455)"
Cayuga,Moravia Farmers' Market,Kinney Drug Store pkg lot 130 Main St.,130 Main St,Moravia,NY,13118,Jayne Andrews,3157301412,,Thursday  10am-2pm,June 2-October 29,M,N,N,N,Y,42.71209,-76.42079,"(42.71209, -76.42079)"
Cayuga,Owen Orchards Farm Stand,8174 Grant Ave. Weedsport,8174 Grant Ave.,Weedsport,NY,13166,Gordon Tripp,3152524097,http://www.owenorchard.com,"Mon-Fri 9am-7pm, Sat 9am-6pm  Sun 9am-5pm","Aug 1-March 31, 2023",M/X/W,Y,Y,N,Y,43.01314,-76.50749,"(43.01314, -76.50749)"
Chautauqua,Abers Acres Farm Stand,884 Route 394  Kennedy,884 Rte. 394,Kennedy,NY,14747,Sue Abers,7162672431,http://www.abersacres.com,"Daily 9am-6:30pm, Nov-May 10am-5pm",Year-round,YR,N,Y,N,Y,42.14495,-79.10996,"(42.14495, -79.10996)"
Chautauqua,Dunkirk Farmers' Market,Dunkirk Senior Center 45 Cliffstar Court,45 Cliffstar Court,Dunkirk,NY,14048,Edward Hayes,7163669876,http://www.cityofdunkirk.com,Wed 9am-2pm,June 8-October 12,M,Y,Y,N,Y,42.48481,-79.32751,"(42.48481, -79.32751)"
Chautauqua,Fredonia Farmers' Market,"Village Hall Barker Commons , 9 Church St.",11 Church St,Fredonia,NY,14063,Anneliese Bruegel,7166802104,,Sat 9am-1pm,Year-round,YR,Y,Y,N,Y,42.44064,-79.33235,"(42.44064, -79.33235)"
Chautauqua,Fredonia WINTER Farmers' Market,329 East Main St. (Rt 20) Masonic Lodge,321 East Main St. (Rte 20),Fredonia,NY,14063,Rosemary Joy,7164107313,http://www.fredoniafarmersmarket.org,Saturday 10am-1pm,"Nov 6-May 14, 2022",M/X/W/P,N,Y,Y,Y,42.44764,-79.315,"(42.44764, -79.315)"
Chautauqua,Jamestown Mobile Market-Chautaqua Center,410 N Main St. Jamestown,410 North Main Street,Jamestown,NY,14701,Linnea Carlson,7162260650,http://jtownpublicmarket.org,"Wed 10am-2pm, Thu 1pm-5pm",June 15-September 28,M,Y,N,N,Y,42.09308,-79.23505,"(42.09308, -79.23505)"
Chautauqua,Jamestown Mobile Market-Prendergast Library,509 Cherry St. Jamestown,509 Cherry Street,Jamestown,NY,14701,Linnea Carlson,7162260650,http://jtownpublicmarket.org,"Wed 10am-2pm, Thu 1pm-5pm",June 15-September 28,M,Y,Y,N,Y,42.09831,-79.24361,"(42.09831, -79.24361)"
Chautauqua,Jamestown Mobile Market-Silver Tree Seniors,9 Crane St. Jamestown,9 Crane Street,Jamestown,NY,14701,Linnea Carlson,7162260650,http://jtownpublicmarket.org,"Wed 10am-2pm, Thu 1pm-5pm",June 15-September 28,M,Y,Y,N,Y,42.09627,-79.23317,"(42.09627, -79.23317)"
Chautauqua,Jamestown Public Market,Third Street,Cherry and West 2nd St,Jamestown,NY,14701,Linnea Carlson,7162260650,,Sat 10am-2pm,June 11-October 29,M,Y,Y,N,Y,42.09567,-79.24234,"(42.09567, -79.24234)"
Chautauqua,Roberto Fred Farm Stand,10655 Temple Rd Dunkirk,10655 Temple Rd,Dunkirk,NY,14048,Roberto Fred,7163667200,,Daily 9am-6pm,June 1-November 30,M,N,Y,N,Y,42.464201,-79.361694,"(42.464201, -79.361694)"
Chautauqua,Westfield Farmers and Artisans Market,Moore Park Rt 20 and Rt 394,Rt 20 and Rt 394,Westfield,NY,14787,Kathleen Mayer,7167530367,http://www.westfieldny.com/farmers-market,Sat 9am-2pm,May 28-October 29,P/M,Y,N,N,Y,42.32203,-79.57812,"(42.32203, -79.57812)"
Chemung,EastSide Farmers' Market,Brand Park 301-311 Maple Ave,760 East Water St,Elmira,NY,14901,Michelle Podolec,6077344453,,Tuesday  3pm-6pm,June 21-September 27,M,N,Y,N,Y,42.08905,-76.7922,"(42.08905, -76.7922)"
Chemung,Grove Park Farmers' Market,4th St. & Walnut Ave. Elmira,Walnut Ave and West 4th St,Elmira,NY,14901,Matthew Glenn,6075464535,,Monday  3pm-6pm,June 6-October 31,M,Y,N,N,Y,42.0921,-76.82013,"(42.0921, -76.82013)"
Chemung,Wisner Park Farmers' Market,208 W Grey St. Elmira,208 W Grey Street,Elmira,NY,14901,Tiffany Millerd,6077340341,http://www.wisnermarket.org,Thu 10am-2pm,June 2-September 29,M,Y,Y,N,Y,42.08943,-76.80801,"(42.08943, -76.80801)"
Chenango,Community Farmers' Market,East Park Norwich,East Park Place,Norwich,NY,13815,Carol Eichler,6073347674,,Fri/Sat 9am-3pm,May 1-November 30,P/M,Y,N,N,Y,42.53184,-75.5229,"(42.53184, -75.5229)"
Chenango,Lamb's Quarters Organic Farm Stand,213 Pierce Rd.  Plymouth,213 Pierce Road,Plymouth,NY,13832,Sandy Pierce,6073344928,http://www.lambsquarterorganicfarm.com,"Daily  12pm-6pm, Closed  Wed & Sat",Year-round,YR,N,Y,N,Y,42.60058,-75.59991,"(42.60058, -75.59991)"
Chenango,Pires Farmers' Market,6066 State Hwy 12  Norwich,6066 State Highway 12,Norwich,NY,13815,Richard Williams,6073342676,,"Mon-Fri 9am-5pm, Sat 9am-4pm Sun 10am-2pm",May 1-November 30,P/M,Y,Y,N,Y,42.54525,-75.52498,"(42.54525, -75.52498)"
Chenango,Sunrise Farms Farm Stand,252 Plymouth-North Norwich Rd.  Plymouth,252 Plymouth-North Norwich Rd.,Plymouth,NY,13832,Kathryn Clemens,6073365834,,"Mon-Fri  9am-5pm, Sunday  9am-2pm",Year-round,YR,N,N,N,Y,42.62427,-75.59152,"(42.62427, -75.59152)"
Clinton,Champlain Farmers' Market,Paquette Park Gazebo Main Street (rte 9),Main Street,Champlain,NY,12919,Janet McFetridge,5182984152,http://www.vchamplain.com,Saturday  9am-12pm,July 1-September 30,M,N,N,N,Y,44.98721,-73.44961,"(44.98721, -73.44961)"
Clinton,JCEO MM-Akwasasne Housing Authority,29 Business Park Rd Hoagansburg,29 business Park Rd,Hoagansburg,NY,12195,Robert King,5183194028,http://www.jceo.org,Wed 10am-12pm,June 1-September 30,M,Y,Y,N,Y,44.97626,-74.67137,"(44.97626, -74.67137)"
Clinton,JCEO MM-Churubusco Senior Center,23 Smith St. Churubusco,23 Smith St.,Churubusco,NY,12934,Robert King,5183194028,http://www.jceo.org,Mon 10am-11:45am,June 1-September 30,M,Y,Y,N,Y,44.95591,-73.92805,"(44.95591, -73.92805)"
Clinton,JCEO MM-Ellenburg Center Senior Ctr,5538 Old State Rd Ellenburg Center,5538 Old State Rd,Ellenburg Center,NY,12934,Robert King,5183194028,http://www.jceo.org,Mon 12:10pm-2pm,June 1-September 30,M,Y,Y,N,Y,44.89508,-73.87197,"(44.89508, -73.87197)"
Clinton,Plattsburgh Farmers' and Craft Sat Market,Green St.,Broad St and Durkee St,Plattsburgh,NY,12901,Julie Baughn,5188027164,http://www.facebook.com/pages/Plattsburgh-Farmers-and-Crafters-Market/121588034547095,Sat 9am-3pm,May 7-October 8,P/M,Y,N,N,Y,44.69535,-73.45226,"(44.69535, -73.45226)"
Clinton,Prays Family Farm Stand-Plattsburgh,605 State Route 3 Plattsburgh,605 State Route 3,Plattsburgh,NY,12944,Maureen Pray,5185695307,,Daily  8:30am-6pm,Year-round,YR,N,N,N,Y,44.6948,-73.5069,"(44.6948, -73.5069)"
Clinton,Rouses Point Farmers' Market,Dodge Memorial Library 144 Lake St.,144 Lake Street,Rouses Point,NY,12979,Jim Rabideau,5182983878,,Friday  3pm-7pm,June 24-September 30,M,N,N,N,Y,44.99038,-73.36434,"(44.99038, -73.36434)"
Clinton,Rulfs Orchard Farm Stand,531 Bear Swamp Road Peru,531 Bear Swamp Road,Peru,NY,12972,Shannon Wilkins,5186438636,http://www.rulfsorchard.com,Daily 6am-6pm,Year-round,YR,N,N,N,Y,44.5786,-73.49804,"(44.5786, -73.49804)"
Clinton,Shield's Vegetables Farm Stand,6303 State Route 22  Plattsburgh,6303 State Route 22,Plattsburgh,NY,12901,Sam Dyer,5185610473,,Daily 10am-6pm,July 15-October 31,M,Y,Y,N,Y,44.73789,-73.47064,"(44.73789, -73.47064)"
Columbia,City of Hudson Farmers' Market,DMV parking lot Sixth & Columbia Sts.,Columbia St and North 6th St,Hudson,NY,12534,Brandon Bjerke,5183003496,http://www.hudsonfarmersmarketny.com,Sat 9am-1pm,April 23-November 19,P/M,Y,Y,N,Y,42.24866,-73.78369,"(42.24866, -73.78369)"
Columbia,City of Hudson WINTER Farmers' Market,"601 Union St. Hudson, sidewalk",601 Union St.,Hudson,NY,12534,Marilyn Cederoth,5189650552,http://www.hudsonfarmersmarketny.com,Saturday  10am-1pm,"December 3-December 24, 2022",X,N,N,N,Y,42.24738,-73.78535,"(42.24738, -73.78535)"
Columbia,Copake Hillsdale Farmers' Market,Roeliff Jansen Park 9140 Route 22,9140 Route 22,Hillsdale,NY,12529,Diane Creed,5183251430,http://www.copakehillsdalefarmersmarket.com,Sat 9am-1pm,May 21-November 19,P/M,Y,Y,N,Y,42.17077,-73.51771,"(42.17077, -73.51771)"
Columbia,Germantown Farmers Market,50 Palatine Park Road Germantown,50 Palatine Park Road,Germantown,NY,12526,Lauren Williams,5185675691,,Saturday 10am-1pm,May 28October 29,P/M,N,N,N,Y,42.135,-73.88551,"(42.135, -73.88551)"
Columbia,Scarecrow Farm Stand,20 Old Barrington Rd  Hudson,20 Old Barrington Rd,Claverack,NY,12534,Virginia Ambrose,5188212453,http://www.scarecrowfarmny.com,"Thu/Fri/Sun 11am-5pm, Mon/Wed call for appt.",June 15-November 1,M,Y,Y,N,Y,42.2105,-73.67909,"(42.2105, -73.67909)"
Cortland,Cincinnatus Farmers' Market,"Cortland-Chenango Rural Services, 2704 Lower Cincinnatus Rd.",2704 Lower Cincinnatus Rd,Cincinnatus,NY,13040,Paul Halstead,6078368972,,Sat 9am-12pm,June 4-October 15,M,Y,N,N,Y,42.53812,-75.89662,"(42.53812, -75.89662)"
Cortland,Cortland Saturday Farmers' Market,13 Carl St.  In front of Grace & Holy Spirit City Church,Main St and Orchard St,Cortland,NY,13045,Nicole Bennett,6077588331,,Sat 8am-2pm,June 4-October 29,M,Y,Y,N,Y,42.60028,-76.18044,"(42.60028, -76.18044)"
Cortland,Cortland Tues Farmers Market,13 Court St.  In front of Grace & Holy Spirit Church,Main St and Orchard St,Cortland,NY,13045,Nicole Bennett,6077588331,,Tue 8am-2pm,June 4-October 29,M,Y,Y,N,Y,42.60028,-76.18044,"(42.60028, -76.18044)"
Cortland,Dave's Veggies Farm Market,5178 NYS Route 41 Homer,5178 NY-41,Homer,NY,13077,David Root,6077494955,,Daily 12am-6pm,May-October,P/M,Y,Y,N,Y,42.659118,-76.203042,"(42.659118, -76.203042)"
Cortland,Plunkett Farms Farm Stand,2180 Tower Road Cortland,2180 Tower Road,Cortland,NY,13045,John and Carla Plunkett,6077530001,,Daily 9am-5pm,July 1-October 31,M,Y,N,N,Y,42.55495,-76.13123,"(42.55495, -76.13123)"
Cortland,Valley View Farms Farm Stand,"44 James St Homer, at Old Homer House",44 James St,Homer,NY,13077,Joan Franklin,6077493424,,Thu 1pm-5pm,June 9-October 27,M,Y,N,N,Y,42.63646,-76.18335,"(42.63646, -76.18335)"
Cortland,Virgil Farmers' Market,"Hollenbecks Cider Mill, 1265 NY Rte 392 Cortland",1266 State Route 392,Virgil,NY,13045,Sara Hollenbeck,6078356455,,Sat 9am-12pm,June 4-October 29,M,Y,N,N,Y,42.51058,-76.19184,"(42.51058, -76.19184)"
Delaware,Catskill Cattle Farm Stand,96 Laurel Bank Ave  Deposit,96 Laurel Bank Ave,Deposit,NY,13754,Lonny Schaefer,6074675762,http://www.catskillcattle.com,"Wed-Sat 11am-6pm, Sun 12pm-4pm",Year-round,YR,Y,N,N,Y,42.06673,-75.40725,"(42.06673, -75.40725)"
Delaware,Pakatakan Farmers' Market,"Round Barn of Halcottville, 46676 State Hwy 30",46676 State Highway 30,Halcottville,NY,12438,Tanya Moyer,5186734242,,Saturday  9am-1pm,May 14-November 26,P/M,N,N,N,Y,42.20103,-74.59909,"(42.20103, -74.59909)"
Delaware,Walton Farmers' Market,Veterans Plaza 181 Delaware St.,181 Delware Street,Walton,NY,13856,Jeanne Darling,6078656531,http://www.ccedelaware.org,Fri 11am-4pm,July 1-September 30,M,Y,N,N,Y,42.16855,-75.13157,"(42.16855, -75.13157)"
Dutchess,Arlington Farmers' Market,"Vassar College Alumni Lawn , 123 Raymond Ave. Poughkeepsie",123 Raymond Ave,Poughkeepsie,NY,12603,Bob Legacy,9144747533,http://www.arlingtonhasit.org,Thursday 2pm-6pm,June 2-October 27,M,Y,N,N,Y,41.68187,-73.89636,"(41.68187, -73.89636)"
Dutchess,Beacon WINTER Farmers' Market,"223 Main St, Beacpm",413 Main Street,Beacon,NY,12508,Paloma Wake,5108514865,http://www.beaconfarmersmarket.org,Sunday  10am-2pm,December 6-April 24,X/W/P,N,Y,Y,Y,41.50321,-73.96674,"(41.50321, -73.96674)"
Dutchess,Millerton Farmers' Market,6 Dutchess Ave. Millerton Methodist Church,6 Dutchess Ave.,Millerton,NY,12546,Christine Sergent,5187894259,,"2nd & 4th Saturdays  10am-2pm, Winter January-April, CLOSED Christmas, New Year's Day",Year-round,YR,N,Y,N,Y,41.9543,-73.50977,"(41.9543, -73.50977)"
Dutchess,Obercreek Farm Stand,81 New Hamburg Road Wappingers Falls,87 New Hamburg Road,Wappingers Falls,NY,12590,Nina Doig,8452980888,http://www.obercreekfarm.com,"Wed-Sat 11am-6pm, Sun 11am-5pm",Year-round,YR,Y,N,N,Y,41.58378,-73.93705,"(41.58378, -73.93705)"
Dutchess,Poughkeepsie Plenty Fresh Market Farm Stand,29 N Hamilton St.  Family Partnership Center  Poughkeepsie,29 N Hamilton Street,Poughkeepsie,NY,12601,Stacy Dedring,8454543792,http://www.dutchessoutreach.org,"Tue-Thu 2p-5p, Fri 2pm-4pm",May 1-November 30,P/M,Y,Y,N,Y,41.70459,-73.92197,"(41.70459, -73.92197)"
Dutchess,Rhinebeck Farmers' Market,Municipal lot 61 E. Market St.,61 East Market St,Rhinebeck,NY,12572,Andrea Bartolomeo,5188211481,http://www.rhinebeckfarmersmarket.com,Sun 10am-2pm,May 1-December 18,P/M/X,Y,Y,N,Y,41.92704,-73.91027,"(41.92704, -73.91027)"
Dutchess,Share the Bounty Farm Stand,"Hudson River Healthcare , 3360 Route 343 Amenia",3360 Route 343,Amenia,NY,12501,Edward Frederick,8452067526,,Tue 9am-1pm,June 28-October 25,M,N,N,N,Y,41.85035,-73.55065,"(41.85035, -73.55065)"
Dutchess,Z Farms Farm Stand,355 Poplar Hill Rd.  Dover Plains,355 Poplar Hill Road,Dover Plains,NY,12522,Zachary Elwood,8456254798,http://www.zfarmsorganic.com,"Daily 10am-6pm, closed Wednesday",Year-round,YR,N,Y,N,Y,41.75631,-73.55278,"(41.75631, -73.55278)"
Erie,Bowman Farms Farm stand,11259 Gowanda State Rd. North Collins,11259 Gowanda State Rd.,North Collins,NY,14111,Susan Bowman,7163372695,http://www.bowmanfarmsinc.com,Daily 9am-5pm,June 10-October 10,M,Y,Y,N,Y,42.57506,-78.93838,"(42.57506, -78.93838)"
Erie,Broadway Farmers' Market,999 Broadway Buffalo parking entrances on Gibson or Lombard St.,999 Broadway,Buffalo,NY,14212,Kathleen Peterson,7168930705,,Mon-Sat  8am-5pm,Year-round,YR,N,Y,N,Y,42.893162,-78.837667,"(42.893162, -78.837667)"
Erie,Clarence Hollow Farmers' Market,10717 Main St. Bike Path pkng lot Clarence,10717 Main St,Clarence,NY,14031,Cheryl Anthony,7167591075,http://www.clarencefarmersmarket.com,Sat 8am-1pm,June 4-October 29,M,Y,N,N,Y,42.9808,-78.58904,"(42.9808, -78.58904)"
Erie,Clinton Bailey Sat Farmers' Market,"1443-1517 Clinton St. Buffalo, corner of Clinton & Bailey Sts.",Bailey Ave and Clinton St,Buffalo,NY,14206,Sharon Baldi,7162080003,http://www.clintonbaileymarket.com,"Saturday  4am-5pm, Nov-Apr  6am-12pm",Year-round,YR,N,Y,N,Y,42.87205,-78.81998,"(42.87205, -78.81998)"
Erie,Downtown Buffalo Country Thursday Market,350 Main St. outside btwn Court & Church Streets,350 Main St. outside btwn Court & Church Streets,Buffalo,NY,14203,Caeley Robinson,7168563150,https://buffaloplace.com/play/our-events/#countrymarket,Thu 10am-2:30pm,May 12-October 20,P/M,Y,Y,N,Y,42.8844,-78.8754,"(42.8844, -78.8754)"
Erie,East Aurora Saturday Farmers' Market,Aurora Village (TOPS) Plaza 123 Grey St.,123 Grey St,East Aurora,NY,14052,Gail Fenton,5853439491,http://www.eastaurorafarmersmarket.com,Sat 7am-1pm,May 7-November 19,P/M,Y,N,N,Y,42.76593,-78.63413,"(42.76593, -78.63413)"
Erie,East Aurora Wednesday Farmers' Market,Aurora Village (TOPS) Plaza 123 Grey St.,123 Grey St,East Aurora,NY,14052,Gail Fenton,5853439491,http://www.eastaurorafarmersmarket.com,Wed 7am-1pm,May 11-November 23,P/M,Y,N,N,Y,42.76593,-78.63413,"(42.76593, -78.63413)"
Erie,Elmwood Village Farmers' Market,Bidwell Parkway corner of Elmwood Ave.,Elmwood Ave and Bidwell Pkwy,Buffalo,NY,14222,James Chichocki,7168810707,http://www.elmwoodmarket.org,Sat 8am-1pm,May 7-November 26,P/M,Y,Y,N,Y,42.92371,-78.87702,"(42.92371, -78.87702)"
Erie,Farm This Way Farm Stand,11086 Brant Reservation Rd.  Brant,11086 Brant Reservation Road,Brant,NY,14027,Carolyn Rosiek,7165491038,,"Sun-Thu 9am-5pm, Fri/Sat 9am-7pm",June 1-October 31,M,Y,N,N,Y,42.58029,-79.01732,"(42.58029, -79.01732)"
Erie,Four Corners Farmers' Market,"9470 Clarence Center Rd, Clarence Center",9470 Clarence Center Road,Clarence Center,NY,14032,Deborah Tangelder,7168661100,,Sat 9am-1pm,June 4-October 15,M,Y,N,N,Y,43.01059,-78.63751,"(43.01059, -78.63751)"
Erie,Hamburg Farmers' Market,45 Church St.,45 Church St.,Hamburg,NY,14075,Jamie Decker,7166497917,,Sat 7:30am-1pm,May 7-October 29,P/M,Y,N,N,Y,42.71677,-78.82994,"(42.71677, -78.82994)"
Erie,Holland Farmers' Market,"25 North Main St.  Holland, Municipal lot Next to Fire Dept",25 North Main St.,Holland,NY,14080,Marg Wnek,7165379590,http://www.thehollandmkt.com,Sun 8:30am-1pm,May 1-October 30,P/M,Y,N,N,Y,42.64149,-78.54248,"(42.64149, -78.54248)"
Erie,Huntington Farm Stand II,11503 Main Street Clarence,11503 Main Street,Clarence,NY,14031,Dan Huntington,7163930590,,Daily  11am-7pm,June 1-October 31,M,N,N,N,Y,42.98909,-78.55762,"(42.98909, -78.55762)"
Erie,Springville Farmers' Market,Gentner Auction 341 W. Main St. (Rt. 39),341 West Main St,Springville,NY,14141,Donna Goldhawk,7165600198,,Wednesday  7am-3pm,Year-round,YR,N,Y,N,Y,42.50906,-78.67989,"(42.50906, -78.67989)"
Essex,Drinkwine Produce Farm Stand,Route 9N & 22 Street Rd.  Ticonderoga,Route 9N and 22 Street Road,Ticonderoga,NY,12883,Henry Drinkwine,5185856346,,"Mon-Sat 10am-6pm, Sun 11am-6pm",May 15-October 31,P/M,Y,N,N,Y,43.88032,-73.44955,"(43.88032, -73.44955)"
Essex,Mountain Weavers' Farm Store,4322 Main Street Port Henry,4322 Main Street,Port Henry,NY,12974,Andrea Connor,5185463355,http://www.mountainweaversfarmstore.com,Monday-Friday  10am-4:30pm,Year-round,YR,N,Y,N,Y,44.04849,-73.45958,"(44.04849, -73.45958)"
Franklin,Akwesasne Farmers' Market,30 Margaret Terrance Memorial Way,30 Margaret Terrance Memorial Way,Akwesasne,NY,13655,Jessica Ayotte,5183583141,,Wed/Sat  11am-2pm,June 30-October 16,M,N,N,N,Y,44.9867,-74.6755,"(44.9867, -74.6755)"
Franklin,Franklin WINTER Farmers Market,Franklin Railroad Museum and Franklin Community Center,574 Main St.,Franklin,NY,13775,Brian Brock,5187060612,,Second Sundays 10am-1pm,December 12-April 1,X/W/P,N,N,N,Y,42.3418,-75.16374,"(42.3418, -75.16374)"
Franklin,JCEO MM-Akwesasne Generations Park,30 Margaret Margaret Terrace Memorial Way Generations Park Akwesasne (Hogansburg),Margaret Terrace Memorial Way,Hogansburg,NY,12195,Robert King,5183194028,http://www.jceo.org,Wed 12:10pm-2pm,June 1-September 30,M,Y,Y,N,Y,44.98041,-74.66642,"(44.98041, -74.66642)"
Franklin,JCEO MM-Alice Center,45 6th St Malone,45 6th St,Malone,NY,12953,Robert King,5183194028,http://www.jceo.org,Thu 10am-11:30am,June 1-September 30,M,Y,Y,N,Y,44.86017,-74.29201,"(44.86017, -74.29201)"
Franklin,JCEO MM-Citizen Advocates,125 Finney Blvd Malone,125 Finney Blvd,Malone,NY,12953,Robert King,5183194028,http://www.jceo.org,Fri 10am-11:30am,June 1-September 30,M,Y,Y,N,Y,44.84193,-74.30111,"(44.84193, -74.30111)"
Franklin,JCEO MM-Elm St. Housing,215 Elm St Malone,215 Elm St,Malone,NY,12953,Robert King,5183194028,http://www.jceo.org,Tue 11:15am-11:45pm,June 1-September 30,M,Y,Y,N,Y,44.85535,-74.28165,"(44.85535, -74.28165)"
Franklin,JCEO MM-Franklin Co Courthouse,355 W Main St.  Malone,355 W Main St.,Malone,NY,12953,Robert King,5183194028,http://www.jceo.org,Tue 12pm-2pm,June 1-September 30,M,Y,Y,N,Y,44.84882,-74.29518,"(44.84882, -74.29518)"
Franklin,JCEO MM-Malone DSS,184 Finney Blvd Malone,184 Finney Blvd,Malone,NY,12953,Robert King,5183194028,http://www.jceo.org,Fri 11:45am-2pm,June 4-October 1,M,Y,Y,N,Y,44.83873,-74.30102,"(44.83873, -74.30102)"
Franklin,JCEO MM-Owls Head,Old Catholic Church 	197 Rte 27 Owls Head,197 ounty Route27,Owls Head,NY,12969,Robert King,5183194028,http://www.jceo.org,Wed  12:30pm-2:00pm,June 1-September 30,M,Y,Y,N,Y,44.69206,-74.11341,"(44.69206, -74.11341)"
Franklin,JCEO MM-Riverside Haven Apartments,"77 Catherine St. Malone, Catherine St. Housing",50 Catherine St.,Malone,NY,12953,Robert King,5183194028,http://www.jceo.org,Tue 10am-11am,June 3-September 30,M,Y,Y,N,Y,44.84783,-74.29156,"(44.84783, -74.29156)"
Franklin,JCEO MM-Trails at Malone,156 Falling Leave Dr. Malone,166 Falling Leave Dr.,Malone,NY,12953,Robert King,5183194028,http://www.jceo.org,Wed 10am-12pm,June 1-September 30,M,Y,Y,N,Y,44.83505,-74.2986,"(44.83505, -74.2986)"
Franklin,JCEO MM-Waverly Municipal Lot,"6 North Main St St Regis Falls, Municipal Complex",6 North Main St,St. Regis Falls,NY,12980,Robert King,5183194028,http://www.jceo.org,"Tue 10am-11:30am, Thu 10am-11:15am",June 1-September 30,M,Y,Y,N,Y,44.67283,-74.54355,"(44.67283, -74.54355)"
Franklin,Malone Farmers' Market,27 Airport Rd. (Rte 11)  Pavilion at Marcy Airfield,27 Airport Road,Malone,NY,12953,Dick Crawford,5185634777,http://www.adirondackfarmersmarket.com,Wed 12pm-4:30pm,May 25-October 5,P/M,Y,N,N,Y,44.84733,-74.32773,"(44.84733, -74.32773)"
Franklin,Saranac Lake Village Farmers' Market,"Riverside Park , Corner of Main St. & Route 3",Corner of Main St. & Route 3,Saranac Lake,NY,12983,Dan Rivera,5182172495,http://www.ausablevalleygrangefarmersmarkets.com,Sat 9am-1pm,May 28-October 8,M,Y,Y,N,Y,44.32503,-74.13178,"(44.32503, -74.13178)"
Fulton,Broadalbin Farmers' Market,3687 State Highway 30  Broadalbin,3687 Highway 30,Broadalbin,NY,12025,Michael Tillson,5188829306,http://www.fmfma.org,Fri 3pm-6pm,June 10-September 30,M,Y,N,N,Y,43.04809,-74.2173,"(43.04809, -74.2173)"
Fulton,Gloversville Farmers' Market,Elm Street Pavilion,9 Elm Street,Gloversville,NY,12078,Michael Tillson,5188829306,http://www.fmfma.org,Sat 8:30am-12:30pm,May 7-October 15,P/M,Y,N,N,Y,43.052604,-74.345796,"(43.052604, -74.345796)"
Genesee,Genesee Country Friday Farmers' Market,Bank St. at Alva Place Batavia,Bank St and Alva Place,Batavia,NY,14020,Kathryn Cringoli,5853011909,,Fri 9am-4pm,June 3-October 28,M,Y,Y,N,Y,42.99905,-78.18151,"(42.99905, -78.18151)"
Genesee,Genesee Country Thursday Farmers' Market,Bank St. at Alva Place Batavia,Bank St and Alva Place,Batavia,NY,14020,Kathryn Cringoli,5853011909,,Thu 9am-4pm,June 3-October 28,M,Y,Y,N,Y,42.99905,-78.18151,"(42.99905, -78.18151)"
Genesee,Genesee Country Tuesday Farmers' Market,Bank St. at Alva Place Batavia,Bank St and Alva Place,Batavia,NY,14020,Kathryn Cringoli,5853011909,,Tue 9am-4pm,June 3-October 28,M,Y,Y,N,Y,42.99905,-78.18151,"(42.99905, -78.18151)"
Greene,Black Horse Farms Farm Stand,10094 Rt. 9W Athens,10094 Rte 9W,Athens,NY,12015,Chellie Apa,5187318776,http://www.blackhorsefarms.com,Daily 9am-6pm,Year-round,YR,Y,Y,N,Y,42.30634,-73.85043,"(42.30634, -73.85043)"
Greene,Bulich Creekside Farm Farm Stand,1682 Route 23B  Leeds,1682 Route 23B,Leeds,NY,12451,Ron Bulich,5185885320,,Daily 10am-5pm,June 15-October 31,M,Y,Y,N,Y,42.26297,-73.92541,"(42.26297, -73.92541)"
Greene,Fromer Market Gardens Farm Stand,6120 Main St.  Tannersville,6120 Main Street,Tannersville,NY,12485,Samantha Metz,8622001935,http://www.fromermarketgardens.com,"Sat 9am-2pm, Wed 2pm-6pm",Year-round,YR,Y,Y,N,Y,42.19546,-74.13889,"(42.19546, -74.13889)"
Greene,Stoneledge Farm Stand,145 Garcia Lane Leeds,145 Garcia Lane,Leeds,NY,12451,Candice Kavakos,5188199966,http://www.stoneledge.farm,Sat/Sun  9am-4pm,May 14-October 9,P/M,N,N,N,Y,42.27878,-73.95216,"(42.27878, -73.95216)"
Hamilton,Speculator Farmers & Crafters Farmers' Market,Speculator Village Pavilion Route 30,State Route 30 and Elliot Ln,Speculator,NY,12164,Donna Benkovich,5185484521,http://www.speculatorchamber.com,Thu 2pm-5pm,June 23-September 15,M,Y,N,N,Y,43.49679,-74.36073,"(43.49679, -74.36073)"
Herkimer,Juliano's Farm Market,2365 State Route 5 Utica,2365 State Route 5,Utica,NY,13502,Deborah E Juliano,3157238778,,"Mon-Sat 7:30am-6pm, Sun 7:30am-4pm",April 21-October 31,P/M,Y,Y,N,Y,43.09608,-75.14626,"(43.09608, -75.14626)"
Herkimer,Little Falls Farmers' & Flea Market,M&T Bank parking lot  Albany St.,Albany Street and 2nd Street,Little Falls,NY,13365,Mary Davis,3158662619,,Saturday  8am-12pm,May 7-October 29,P/M,N,N,N,Y,43.04284,-74.85828,"(43.04284, -74.85828)"
Herkimer,MAWS Farm Stand,7342 Main Street Newport,7342 Main Street,Newport,NY,13416,Michael Skwara,3159850088,http://www.mawsfarm.com,Daily  9am-6pm,Year-round,YR,N,Y,N,Y,43.18096,-75.01054,"(43.18096, -75.01054)"
Herkimer,Northshire Farm Farm Stand,1067 US Highway 20 West Winfield,1067 US Highway 20,West Winfield,NY,13491,S. James Grillo,3157256226,http://www.northshirefarmstore.com,Daily 8am-7pm,Year-round,YR,Y,N,N,Y,42.89471,-75.14503,"(42.89471, -75.14503)"
Herkimer,Old Forge Farmers' Market,201 North St (George Hiltebrant Rec Center Parking Lot),Crosby Blvd and Park Ave,Old Forge,NY,13420,Robin Hill,3153693353,http://www.cap-21.org,Fri 1pm-5pm,June 17-October 7,M,Y,N,N,Y,43.70893,-74.97286,"(43.70893, -74.97286)"
Jefferson,Carthage Farmers' Market,"Farmers Market Pavilion , 150 Riverside Dr. (behind Carthage Rescue Squad)",150 Riverside Drive,Carthage,NY,13619,Rebecca Wallen,3154933590,http://www.carthageny.com,Fri 1pm-6pm,May 27-October 14,P/M,Y,N,N,Y,43.97714,-75.61247,"(43.97714, -75.61247)"
Jefferson,Cross Island Farms Farm Stand,"44301 Cross Island Rd, Wellesley Island",44301 Cross Island Road,Wellesley Island,NY,13640,Dani Baker,3154823663,http://www.crossislandfarms.com,Daily 7am-8pm,Year-round,YR,Y,N,N,Y,44.30891,-76.00675,"(44.30891, -76.00675)"
Jefferson,Farm Fresh Produce Farm Stand,1753 State Street Watertown,1753 State Street,Watertown,NY,13601,Henry M. Stoltzfus,6078694847,,Tue/Fri 8am-4pm,June 17-October 14,M,Y,N,N,Y,43.96701,-75.88011,"(43.96701, -75.88011)"
Jefferson,Tickle the Earth Farm Stand,13501 County Route 155  Adams Center,13501 County Route 155,Adams Center,NY,13601,Almeda Grandjean,3155835660,,Daily 8am-9pm,Apr 23-Octobe 31,P/M,Y,Y,N,Y,43.88524,-75.94957,"(43.88524, -75.94957)"
Jefferson,Watertown Saturday Farmers' Market,"Pavilion at J.B. Wise , 175 Black River Pkway",175 Black River Parkway,Watertown,NY,13601,Mike Nuckols,3157888450,,Sat 9am-2pm,June 4-October 29,M,Y,N,N,Y,43.97651,-75.90988,"(43.97651, -75.90988)"
Jefferson,Windswept Meadows Farm Stand,17025 Cty Rt 68 Watertown,17025 County Road 68,Watertown,NY,13601,Delta Keeney,3157881933,http://www.keeneyswindsweptmeadowsfarm.com,Daily 8am-8pm,June 27-October 29,M,Y,Y,N,Y,43.91784,-75.87206,"(43.91784, -75.87206)"
Kings,6th Ave. Sunset Park Greenmarket,602 44th St. at 6th Ave.,44th Street at 6th Avenue,Brooklyn,NY,11220,Siobahn Keys,2127887476,http://www.grownyc.org/greenmarket,Saturday  8am-3pm,Year-round,YR,N,Y,N,Y,40.64711,-74.00463,"(40.64711, -74.00463)"
Kings,Bartel-Pritchard Square Sunday Greenmarket,205 Prospect Park at West 15th St. inside park,Prospect Park West and 14th Street,Brooklyn,NY,11215,Siobahn Keys,2127887476,http://www.grownyc.org/greenmarket,Sunday  9am-3pm,Year-round,YR,N,Y,N,Y,40.66094,-73.97979,"(40.66094, -73.97979)"
Kings,Bartel-Pritchard Square Wed Greenmarket,205 Prospect Park at West 15th St. inside park,Prospect Park West and 14th Street,Brooklyn,NY,11215,Siobahn Keys,2127887476,http://www.grownyc.org/greenmarket,Wednesday 8am-3pm,Year-round,YR,N,Y,N,Y,40.6616,-73.97939,"(40.6616, -73.97939)"
Kings,Brooklyn Borough Hall Saturday Greenmarket,211 Montague St. Supreme Court Plaza,Court St and Montague St,Brooklyn,NY,11201,Siobahn Keys,2127887476,http://www.grownyc.org/greenmarket,Saturday 8am-4pm,Year-round,YR,N,Y,N,Y,40.69374,-73.99043,"(40.69374, -73.99043)"
Kings,Brooklyn Borough Hall Tuesday Greenmarket,211 Montague St. Supreme Court Plaza,Court St and Montague St,Brooklyn,NY,11201,Siobahn Keys,2127887476,http://www.grownyc.org/greenmarket/brooklyn/boro-hall-sa,Tuesday  8am-4pm,Year-round,YR,N,Y,N,Y,40.69374,-73.99043,"(40.69374, -73.99043)"
Kings,Bushwick Hope Ball Field Farmers' Market,Knickerbocker Ave btwn Menahan St & Grove St.,Knickerbocker Ave,Bushwick,NY,10301,Bianca Bockman,7188210254,http://www.riseboro.org,Wed 9am-3pm,May 18-November 23,P/M,Y,Y,N,Y,40.70117,-73.92252,"(40.70117, -73.92252)"
Kings,Bushwick Maria Hernandez Pk Farmers' Market,Knickerbocker Ave @ Starr & Suydam,Knickerbocker Avenue,Brooklyn,NY,11206,Bianca Bockman,7188210254,http://www.riseboro.org,Sat 9am-3pm,May 14-November 26,P/M,Y,Y,N,Y,40.70257,-73.92497,"(40.70257, -73.92497)"
Kings,Carroll Gardens Greenmarket,330 Carroll St. btwn Smith & Court Sts.,Carroll St and Court St,Brooklyn,NY,11231,Siobahn Keys,2127887476,http://www.grownyc.org/greenmarket/brooklyn/carroll-gardens,Sunday  8am-2pm,Year-round,YR,N,Y,N,Y,40.68106,-73.99653,"(40.68106, -73.99653)"
Kings,Cortelyou Greenmarket,Cortelyou Rd. btwn Argyle & Rugby Rds.,1399 Cortelyou Rd,Brooklyn,NY,11226,Siobahn Keys,2127887476,https://www.grownyc.org/farmstands,Sunday  8am-2pm,Year-round,YR,N,Y,N,Y,40.64044,-73.96617,"(40.64044, -73.96617)"
Kings,Fort Greene Park Greenmarket,Washington Park btwn Dekalb Ave. & Willoughby St.,Washington Park and DeKalb Ave,Brooklyn,NY,11205,Siobahn Keys,2127887476,http://www.grownyc.org/greenmarket/brooklyn/fort-greene,Saturday  8am-3pm,Year-round,YR,N,Y,N,Y,40.68962,-73.97313,"(40.68962, -73.97313)"
Kings,Grand Army Plaza Greenmarket,Flatbush Ave. & Prospect Park West,Flatbush Ave and Grand Army Plaza,Brooklyn,NY,11238,Siobahn Keys,2127887476,http://www.grownyc.org/greenmarket/brooklyn-grand-army-plaza,Saturday  8am-4pm,Year-round,YR,N,Y,N,Y,40.67412,-73.9695,"(40.67412, -73.9695)"
Kings,Harvest Home Brower Park Farm Stand,Prospect Place & Brooklyn Ave. Next to Brooklyn Childrens Museum,Prospect Place and Brooklyn Ave.,Brooklyn,NY,11213,Maritza Owens,2128283361,http://www.harvesthomefm.org,Thursday 8am-4pm,June 16-November 17,M,Y,Y,N,Y,40.674,-73.94454,"(40.674, -73.94454)"
Kings,Harvest Home Coney Island Farm Stand,Ocean Parkway btwn Ave Z & Shore Pkwy,Ocean Pkwy and Avenue Z,Brooklyn,NY,11235,Maritza Owens,2128283361,http://www.harvesthomefm.org,Fri  8am-4pm,June 17-November 18,M,Y,Y,N,Y,40.58669,-73.96578,"(40.58669, -73.96578)"
Kings,Harvest Home Kings Co. Hospital Farmers' Market,Clarkson Ave btwn E 37th & E 39th Sts.,511 Clarkson Ave,Brooklyn,NY,11203,Maritza Owens,2128283361,http://www.harvesthomefm.org,Wed 8am-5pm,June 15-November 23,M,Y,Y,N,Y,40.65588,-73.94245,"(40.65588, -73.94245)"
Kings,McCarren Park Greenmarket,228 N. 12th St at Union Ave,N 12th Street and Driggs Ave,Brooklyn,NY,11222,Siobahn Keys,2127887476,http://www.grownyc.org/greenmarket/brooklyn/greenpoint-sa,Saturday  8am-2pm,Year-round,YR,N,Y,N,Y,40.72046,-73.95269,"(40.72046, -73.95269)"
Kings,McGolrick Park Farmers' Market,"130 Russell St. Brooklyn, Center Pavillion in McGolrick Park",130 Russell Street,Brooklyn,NY,11222,Dacotah Rousseau,9149234837,http://www.downtoearthmarkets.com,Sun 10am-3pm,May 15-December 18,P/M/X,Y,Y,N,Y,40.72483,-73.94432,"(40.72483, -73.94432)"
Kings,Park Slope Farmers' Market,289 4th Street at 5th Ave.  near PS 51 Brooklyn,289 4th Street,Brooklyn,NY,11215,Dacotah Rousseau,9149234837,http://www.downtoearthmarkets.com,Sun 10am-3pm,May 15-December 18,P/M/X,Y,Y,N,Y,40.6722,-73.98379,"(40.6722, -73.98379)"
Kings,Red Hook Farm Stand I,"560 Columbia St. Brooklyn, Near the BASIS Independent School",560 Columbia St,Brooklyn,NY,11231,Saara Nafici,7188586782,http://www.added-value.org/farmers-market,Sat 10am-3pm,June 18-November 19,M,Y,Y,N,Y,40.67237,-74.00884,"(40.67237, -74.00884)"
Kings,Seeds in the Middle Farm Stand-Brownsville,213 Osborn St Brooklyn,213 Osborn St,Brooklyn,NY,11212,Nancie Katz,9176973745,http://seedsinthemiddle.org,Friday 2pm-5pm,Year-round,YR,N,Y,N,Y,40.66699,-73.90811,"(40.66699, -73.90811)"
Kings,Seeds in the Middle Farm Stand Ocean Hill,2163 Dean Street,2163 Dean Street,Brooklyn,NY,11233,Nancie Katz,9176973745,http://seedsinthemiddle.org,Wednesday 12:30pm-3:00pm,Year-round,YR,N,Y,N,Y,40.67524,-73.91536,"(40.67524, -73.91536)"
Kings,Seeds in the Middle Farm Stand-Parkside Plaza,"Parkside Plaza, Brooklyn NY",Ocean Avenue at Parkside Avenue,Brooklyn,NY,11226,Nancie Katz,9176973745,http://seedsinthemiddle.org,Sunday 10am-2pm,Year-round,YR,N,N,N,Y,40.65487,-73.96188,"(40.65487, -73.96188)"
Kings,Seeds in the Middle Farm Stand-Wyckoff,Wyckoff Street between Bond and Hoyt Streets,Wyckoff Street between Bond and Hoyt Streets,Brooklyn,NY,11217,Nancie Katz,9176973745,http://seedsinthemiddle.org,Saturday 10am-2pm,Year-round,YR,N,N,N,Y,40.68523,-73.98871,"(40.68523, -73.98871)"
Kings,Urban Oasis Farmers' Market,"Kingsboro Psychiatric Center, 681 Clarkson Ave. btwn Troy Ave & 43rd St.",681 Clarkson Ave,Brooklyn,NY,11203,Michelle Almonte,7182217132,,Wed 2pm-5:30pm,June 29-November 16,M,Y,N,N,Y,40.65621,-73.93741,"(40.65621, -73.93741)"
Lewis,Colwell's Farm Stand and Garden Center,6007 State Route 12  Glenfield,6007 State Route 12,Glenfield,NY,13343,Michael Colwell,3153767402,http://www.colwellsfarmmarket.com,"Mon-Sat  8am-7pm, Sun 9am-7pm",April 1-November 17,P/M,Y,Y,N,Y,43.71844,-75.41148,"(43.71844, -75.41148)"
Lewis,Harrisville Farmers' Market,"Scenic View lot , State Street",State Street and Main Street,Harrisville,NY,13648,Laura La Platney,3157771689,,Sat 9am-4pm,May 28-October 29,P/M,Y,N,N,Y,44.14849,-75.31571,"(44.14849, -75.31571)"
Lewis,Lewis Co. General Hospital Farmers' Market,"7785 N. State St.  Lowville, Children's Clinic  parking lot",7785 North State St,Lowville,NY,13367,Darcy Zehr,3153765225,http://www.lcgh.net,Thu 11am-3pm,June 9-October 6,M,Y,N,N,Y,43.79599,-75.49832,"(43.79599, -75.49832)"
Lewis,Lyons Falls Farmers' Market,Riverside Park  6904 Laura St.,6904 Laura St,Lyons Falls,NY,13368,Catherine Liendecker,3153488744,http://www.lewisfirst.com/lyonsfallsalive,Tue 11am-4pm,June 14-October 4,M,Y,Y,N,Y,43.61458,-75.3562,"(43.61458, -75.3562)"
Lewis,Roads End Orchards,5044 Crofoot Hill Road,5044 Crofoot Hill Road,Constableville,NY,13325,Matthew Swiernik,3157833695,http://www.roadsendorchards.com,"Mon-Thurs  11am-4pm, , Fri-Sun  12pm-7pm",Year-round,YR,N,N,N,Y,43.59227,-75.48159,"(43.59227, -75.48159)"
Livingston,Dansville Farmers' Market,50 Maple St. Dansville,50 Maple St,Dansville,NY,14437,James D Romley,4432992699,,Fri 11am-4pm,May 27-October 14,P/M,Y,N,N,Y,42.56606,-77.70838,"(42.56606, -77.70838)"
Madison,Cazenovia Farmers Market,Emory and Greene St.  Village Green,48 Albany St. Memorial Park,Cazenovia,NY,13035,Anna Marie Newland,3156559243,http://www.cazenoviachamber.com,Sat 9am-2pm,May 7-October 21,P/M,Y,N,N,Y,42.92975,-75.85456,"(42.92975, -75.85456)"
Madison,Cottage Lawn Farmers' Market,"435 Main St. Oneida, Madison Co. Historical Society",435 Main St.,Oneida,NY,13421,Colleen Donahue,3153634136,http://www.mchsfarmersmarket.org,Tue 2pm-6pm,June 7-August 30,P/M,Y,N,N,Y,43.08719,-75.64705,"(43.08719, -75.64705)"
Madison,Dizzy Lizzie's Farm Farm Stand,3823 Sanderson Rd Erieville,3823 Sanderson Rd,Erieville,NY,13061,Elizabeth Blackburn,3156627565,http://www.dizzylizziesfarm.com,Mon 11pm-2pm,May 16-October 17,M,Y,N,N,Y,42.83934,-75.74399,"(42.83934, -75.74399)"
Madison,Kubeckas Farm Stand,691 Chestnut Rdige Rd. Kirkville,691 Chestnut Ridge Rd,Kirkville,NY,13082,Karissa Atwood,3156875103,,"Mon-Fri  10am-6pm, Saturday  10am-5pm",June 13-October 31,M,N,N,N,Y,43.11239,-75.94782,"(43.11239, -75.94782)"
Madison,Village of Hamilton Farmers' Market,Village Green 3 Broad St.,Broad St and Payne St,Hamilton,NY,13346,Kim Taranto,3158241111,http://www.hamilton-ny.gov,Saturday  8am-1pm,May 7-October 22,P/M,N,N,N,Y,42.82684,-75.54436,"(42.82684, -75.54436)"
Monroe,Brightly's Farm Market,525 Drake Rd.  Hamlin,525 Drake Rd.,Hamlin,NY,14464,Betsy Brightly,5856364337,http://www.brightlyfarms.com,"Daily  9am-5pm, Friday  9am-8pm, Sat  9am-6pm",Year-round,YR,N,N,N,Y,43.29471,-77.94344,"(43.29471, -77.94344)"
Monroe,Brighton Farmers' Market,"Brighton High School lot, 1150 Winton Rd. South",1150 Winton Rd South,Rochester,NY,14618,Sue Gardner-Smith,5852698918,http://www.brightonfarmersmarket.org,Sun 9am-1pm,April 24-December 18,P/M/X,Y,Y,N,Y,43.12204,-77.56808,"(43.12204, -77.56808)"
Monroe,Brighton WINTER Farmers' Market,Brookside Center  220 Idlewood Rd. Rochester,220 Idlewood Road,Rochester,NY,14618,Sue Gardner-Smith,5852698918,http://www.brightonfarmersmarket.org,Sun 10am-12pm,November 27-December 18,M/X,N,Y,N,Y,43.11275,-77.56809,"(43.11275, -77.56809)"
Monroe,Brockport Farmers' Market,Market St. off Main St. Brockport,Main St and Market St,Brockport,NY,14420,Charlene Veltz,5857503382,http://www.brockportny.org/community/farmers-market,Sun 8am-1pm,June 19-October 30,M,Y,N,N,Y,43.21556,-77.9385,"(43.21556, -77.9385)"
Monroe,Irondequoit Farmers' Market,Town Hall Lawn  1280 Titus Ave. Rochester,1280 Titus Ave,Rochester,NY,14617,Katrina Hall,5853366073,http://www.irondequoit.org,Thursday 4pm-8pm,May 26-October 13,P/M,Y,Y,N,Y,43.21118,-77.58154,"(43.21118, -77.58154)"
Monroe,Partyka Farms Farm Stand,1420 County Line Rd. Kendall,1420 County Line Rd.,Kendall,NY,14470,Lora Partyka,5857520258,http://www.partykafarms.com,Daily  9am-7pm,Year-round,YR,N,Y,N,Y,43.29811,-77.99548,"(43.29811, -77.99548)"
Monroe,Rochester Public Market-Saturday,280 N. Union St. off East Main St.,280 North Union St.,Rochester,NY,14609,Cindy De Coste,5854286907,http://www.cityofrochester.gov/publicmarket,Saturday 5am-3pm,Year-round,YR,N,Y,Y,Y,43.1657,-77.59016,"(43.1657, -77.59016)"
Monroe,Rochester Public Market -Thursday,280 N. Union St. off East Main St.,280 North Union St.,Rochester,NY,14609,Cindy De Coste,5854286907,http://www.cityofrochester.gov/publicmarket,Thursday  6am-1pm,Year-round,YR,N,Y,Y,Y,43.1657,-77.59016,"(43.1657, -77.59016)"
Monroe,Rochester Public Market -Tuesday,280 N. Union St. off East Main St.,280 North Union St.,Rochester,NY,14609,Cindy De Coste,5854286907,http://www.cityofrochester.gov/publicmarket,Tuesday  6am-1pm,Year-round,YR,N,Y,Y,Y,43.1657,-77.59016,"(43.1657, -77.59016)"
Monroe,The Mall at Greece Ridge Sat Farmers' Market,271 Greece Ridge Center Drive  Rochester,271 Greece Ridge Center Drive,Rochester,NY,14626,Melanie Fazio,5852251140,http://www.themallatgreeceridge.com,Thu/ Sat 8am-2pm,June 4-October 29,M,Y,N,N,Y,43.20677,-77.69406,"(43.20677, -77.69406)"
Monroe,Webster's Joe Obbie Farmers' Market,Webster Town Center  1028 Ridge Road,1028 Ridge Road,Webster,NY,14580,Jason Bliek,5852611533,http://www.webstersjoeobbiefarmersmarketinc.org,Sat 8:30-1pm,June 11-October 29,M,Y,N,N,Y,43.20964,-77.45416,"(43.20964, -77.45416)"
Montgomery,Canajoharie WINTER Farmers Market,Moose Lodge 159 Erie Blvd.,159 Erie Blvd.,canajoharie,NY,13317,Janet L. Stanley,5186730292,https://www.facebook.com/canajohariefarmersmarket/,2nd Sunday 10a-12p,Nov-April,X/W/P,N,N,N,Y,42.90518,-74.58031,"(42.90518, -74.58031)"
Montgomery,Clancy Farms Farm Stand,265 Heiser Rd.  Fort Plain,265 Heiser Road,Fort Plain,NY,13339,David Clancy,5189934806,,"Tues-Fri 10am-4pm, Sat 1pm-5pm",June 24-October 14,M,Y,N,N,Y,42.91494,-74.62885,"(42.91494, -74.62885)"
Montgomery,Damin Farm Stand,8075 State Highway 5  St. Johnsville,8075 State Highway 5,St. Johnsville,NY,13452,Barb Damin,5185682643,,Daily 9am-6pm,Year-round,YR,Y,N,N,Y,43.00497,-74.72233,"(43.00497, -74.72233)"
Montgomery,Haven of Hope Farm Stand,19 Cemetery St. Fonda,19 Cemetery Street,Fonda,NY,12068,Pat Brooking,5185223342,http://www.havenofhopefarm.org,"Thu-Sat 9am-4pm, Sun 12pm-2pm",Year-round,YR,Y,Y,N,Y,42.95627,-74.36841,"(42.95627, -74.36841)"
Nassau,Cedarmore Farmers Market-Baldwin LIRR,"Baldwin Train Station Parking Lot #BA 12 , btwn Milburn & Brookside Ave.",Lot #BA12 Sunrise Hwy,Baldwin,NY,115510,Imani Jackson,5163783415,http://www.freeportfarmersmarket.org/,Sat  11:30am-3:30pm,July 16-October 29,M,N,Y,N,Y,40.6566,-73.6221,"(40.6566, -73.6221)"
Nassau,Deep Roots Farmers Market,100 Garvies Point Rd  Glen Cove,100 Garvies Point Rd,Glen Cove,NY,11542,Amy Peters,5163185487,,Sat 9am-1pm,June 4-November 19,M,Y,N,N,Y,40.85889,-73.64328,"(40.85889, -73.64328)"
Nassau,Deep Roots WINTER Farmers Market,"100 Village Square Glen Cove, at Bridge St","100 Village Square,",Glen Cove,NY,11542,Amy Peters,5163185487,https://www.facebook.com/seaclifffarmersmarket/,Saturdays 10-2 PM,"December 4-April 30, 2022",X/W/P,N,N,N,Y,40.8643,-73.63233,"(40.8643, -73.63233)"
Nassau,Hempstead Community Farm Stand,99 Nichols Court,99 Nichols Court,Hempstead,NY,11550,Jacob Dixon,5165442955,http://www.choiceforall.org,Sat 11:30am-4pm,July 9-October 22,M,Y,Y,N,Y,40.71148,-73.62851,"(40.71148, -73.62851)"
Nassau,Restoration Farm Farm Stand,140 Bethpage-Sweet Hollow Road,140 Bethpage-Sweet Hollow Road,Old Bethpage,NY,11804,Caroline Fanning,7183094220,http://www.restorationfarm.com,"Tue/Thu  2pm-6pm, Saturday  9am-1pm",May 21-October 29,M/X/W,N,N,N,Y,40.76181,-73.44488,"(40.76181, -73.44488)"
Nassau,Rockville Centre Farmers' Market,"Sunrise Hwy & Longbeach Rd. , Village of Rockville Centre",Sunrise Hwy and Long Beach Rd,Rockville Centre,NY,11570,Ethel Terry,6313233653,http://www.longislandgrowersmarket.com,Sunday 7am-12pm,June 5-December 18,M/X,Y,N,N,Y,40.65712,-73.6321,"(40.65712, -73.6321)"
Nassau,Roosevelt Community Farm Stand,380 Nassau Rd  Roosevelt,380 Nassau Rd.,Roosevelt,NY,11575,Jacob Dixon,5165442955,http://www.choiceforall.org,Sun 11:30a-4p,July 17-October 29,M,Y,Y,N,Y,40.68172,-73.59132,"(40.68172, -73.59132)"
Nassau,Roslyn Farmers' Market,Christopher Morley Park 500 Searingtown Rd.,500 Searingtown Rd,Roslyn Heights,NY,11577,Ethel Terry,6313233653,http://www.longislandgrowersmarket.com,Wed 7am-1pm,June 1-December 28,M/X,Y,N,N,Y,40.78188,-73.66277,"(40.78188, -73.66277)"
Nassau,Seaford Farmers' Market,"Seaford Railroad Station Parking lot 3, Sunrise Highway & Washington Ave",Sunrise Highway and Washington St.,Seaford,NY,11783,Ethel Terry,6313233653,http://www.longislandgrowersmarket.com,Sat 7am-12pm,June 4-November 19,M,Y,N,N,Y,40.67572,-73.48657,"(40.67572, -73.48657)"
Nassau,Valley Stream Farmers' Market,"Arthur Hendrickson Park , 123 W Merrick Rd",123 W Merrick Rd,Valley Stream,NY,11580,Ethel Terry,6313233653,,Thu 7am-1pm,June 9-November 17,M,Y,N,N,Y,40.66599,-73.70221,"(40.66599, -73.70221)"
New York,79th Street Greenmarket,366 Columbus Ave. btwn W 77th & W 81st Sts.,West 79th St and Columbus Ave,New York,NY,10024,Siobahn Keys,2127887476,http://www.grownyc.org/greenmarket/manhattan/79th-street,Sunday  9am-4pm,Year-Round,YR,N,Y,N,Y,40.78195,-73.97548,"(40.78195, -73.97548)"
New York,82nd Street Saint Stephen's Greenmarket,408 E 82nd St.  btwn 1st & York Aves.,408 East 82nd Street,New York,NY,10128,Siobahn Keys,2127887476,http://www.grownyc.org/greenmarket/manhattan/82nd-street,Saturday  9am-2:30pm,Year-round,YR,N,Y,N,Y,40.77394,-73.9506,"(40.77394, -73.9506)"
New York,97th Street Greenmarket,125 W 97th St. btwn Amsterdam & Columbus Aves.,West 97th St and Columbus Ave,New York,NY,10025,Siobahn Keys,2127887476,http://www.grownyc.org/greenmarket/manhattan/west-97,Friday  8am-2pm,Year-round,YR,N,Y,N,Y,40.79356,-73.96701,"(40.79356, -73.96701)"
New York,Abingdon Square Greenmarket,601 Hudson St. at W 12th St.,Hudson St and W 12 St,New York,NY,10014,Siobahn Keys,2127887476,http://www.grownyc.org/greenmarket/manhattan/abingdon-square,Saturday  8am-2pm,Year-round,YR,N,Y,N,Y,40.73755,-74.00568,"(40.73755, -74.00568)"
New York,Bowling Green Thursday Greenmarket,1 Bowling Green,1 Bowling Green,New York,NY,10004,Siobahn Keys,2127887476,http://www.grownyc.org/greenmarket,Thursday  8am-5pm,Year-round,YR,N,Y,N,Y,40.70445,-74.01423,"(40.70445, -74.01423)"
New York,Bowling Green Tuesday Greenmarket,1 Bowling Green,1 Bowling Green,New York,NY,10004,Siobahn Keys,2127887476,http://www.grownyc.org/greenmarket/manhattan/bowling-green-tu,Tuesday  8am-5pm,Year-round,YR,N,Y,N,Y,40.70454,-74.01418,"(40.70454, -74.01418)"
New York,Bro/Sis Green Youth Market,"Johnny Hartman Plaza (North Corner), Across from 140 Hamilton Place",143rd Street and Amsterdam Ave,Manhattan,NY,10031,Wendy Flores,2122837044,http://brotherhood-sistersol.org/programs/environmental-program,Wed  10:30am-6pm,May 18-November 23,P/M,Y,Y,N,Y,40.82396,-73.94855,"(40.82396, -73.94855)"
New York,Chelsea Farmers' Market,383 W 23rd St.,383 W 23rd Street,New York,NY,10011,Dacotah Rousseau,9149234837,http://www.downtoearthmarkets.com,Sun 9am-2pm,May 14-December 17,P/M/X,Y,Y,N,Y,40.74633,-74.00081,"(40.74633, -74.00081)"
New York,Columbia Sun Greenmarket,2910 Broadway btwn W114th & W115th Sts.,Broadway and West 115th St,New York,NY,10027,Siobahn Keys,2127887476,http://www.grownyc.org/greenmarket,Sunday  8am-3pm,Year-round,YR,N,Y,N,Y,40.8073,-73.9643,"(40.8073, -73.9643)"
New York,Columbia Thu Greenmarket,Broadway btwn W 114th &  W 115th Sts.,Broadway and West 115th St,New York,NY,10027,Siobahn Keys,2127887476,http://www.grownyc.org/greenmarket/manhattan/columbia-th,Thursday  8am-5pm,Year-round,YR,N,Y,N,Y,40.80731,-73.9643,"(40.80731, -73.9643)"
New York,Dag Hammarskjold Plaza Greenmarket,245 E 47th St. btwn 1st & 2nd Aves.,East 47th St and Second Ave,New York,NY,10017,Siobahn Keys,2127887476,http://www.grownyc.org/greenmarket/manhattan/dag-hammarskjold,Wednesday  8am-4pm,Year-round,YR,N,Y,N,Y,40.75298,-73.96989,"(40.75298, -73.96989)"
New York,Grass Roots Farmers' Market,"Jackie Robinson Park W 145th St., btwn Edgecomb & Bradhurst Aves.",West 145th St and Edgecombe Ave,New York,NY,10030,Gabrielle Girigorie,2122522113,,Sat/Tue  9am-4pm,July 5-November 29,M,N,Y,N,Y,40.82365,-73.94385,"(40.82365, -73.94385)"
New York,Harvest Home East Harlem Farmers' Market,E 104th St. & Third Ave.,East 104th St and Third Ave,New York,NY,10029,Maritza Owens,2128283361,http://www.harvesthomefm.org,Thu 8am-4pm,July 7-November 17,M,Y,Y,N,Y,40.79024,-73.94564,"(40.79024, -73.94564)"
New York,Harvest Home Harlem Hospital Farmers' Market,"506 Lenox Ave. , Btwn W 135th & W 137th Sts.",137th Street and Lennox Avenue,New York,NY,10037,Maritza Owens,2128283361,http://www.harvesthomefm.org,Fri 8am-5pm,June 17-November 18,M,Y,Y,N,Y,40.81539,-73.93985,"(40.81539, -73.93985)"
New York,Harvest Home Lenox Ave. Farmers' Market,Lenox Ave. btwn W 117th & W 118th Sts. New York,150 Lenox Avenue,New York,NY,10027,Maritza Owens,2128283361,http://www.harvesthomefm.org,Sat 8am-4pm,June 25-November 19,M,Y,Y,N,Y,40.80295,-73.9489,"(40.80295, -73.9489)"
New York,Harvest Home Metropolitan Farmers' Market,2nd Ave btwn East 99th St. & E97th St,2nd Ave. at East 99th St.,New York,NY,10029,Maritza Owens,2128283361,http://www.harvesthomefm.org,Fri 8am-5pm,June 17-November 18,M,Y,Y,N,Y,40.78553,-73.94615,"(40.78553, -73.94615)"
New York,Inwood Greenmarket,"620 Isham St., Isham Park, btwn Seaman Ave. & Cooper St.",Isham St and Seaman St,New York,NY,10034,Siobahn Keys,2127887476,http://www.grownyc.org/greenmarket/manhattan/inwood,Saturday  8am-3pm,Year-round,YR,N,Y,N,Y,40.86988,-73.9209,"(40.86988, -73.9209)"
New York,Morningside Park Farmers' Market,237 Manhattan Ave,237 Manhattan Ave.,New York,NY,10025,Dacotah Rousseau,9149234837,http://www.downtoearthmarkets.com,Sat 9am-2pm,May 14-December 17,P/M/X,Y,Y,N,Y,40.80173,-73.95915,"(40.80173, -73.95915)"
New York,Soul to Soul Community Farm Stand,Adam Clayton Powell Jr. Blvd between 110th and 111th St.,1800 Adam Clayton Powell Jr. Blvd,New York,NY,10026,Marlow White,6464984764,,Thu/Fri 11am-5pm,Year-round,YR,Y,Y,N,Y,40.79967,-73.95481,"(40.79967, -73.95481)"
New York,Tompkins Square Greenmarket,Tompkins Square Park 111 Ave at E 7 St.,Avenue A and East 7th St,New York,NY,10009,Siobahn Keys,2127887476,http://www.grownyc.org/greenmarket/manhattan/tompkins-square,Sunday  9am-5pm,Year-round,YR,N,Y,N,Y,40.72602,-73.98353,"(40.72602, -73.98353)"
New York,Tribeca Greenmarket Saturday,315 Greenwich St. at Chambers St,Greenwich St and Chambers St,New York,NY,10023,Siobahn Keys,2127887476,http://www.grownyc.org/greenmarket/manhattan/tribeca-sa,Saturday  8am-3pm,Year-round,YR,N,Y,N,Y,40.7163,-74.01097,"(40.7163, -74.01097)"
New York,Tribeca Greenmarket Wednesday,315 Greenwich St. at Chambers St,Greenwich St and Chambers St,New York,NY,10023,Siobahn Keys,2127887476,http://www.grownyc.org/greenmarket,Wednesday  8am-3pm,Year-Round,YR,N,Y,N,Y,40.71629,-74.01095,"(40.71629, -74.01095)"
New York,Tucker Square Saturday Greenmarket,125 Columbus Ave btwn W 65th & W 66th Sts.,Columbus and West 66th St,New York,NY,10023,Siobahn Keys,2127887476,http://www.grownyc.org/greenmarket/manhattan/tuckerthursday,Saturday  8am-5pm,Year-round,YR,N,Y,N,Y,40.77361,-73.98158,"(40.77361, -73.98158)"
New York,Tucker Square Thursday Greenmarket,125 Columbus Ave btwn W 65th & W 66th Sts.,Columbus and West 66th St,New York,NY,10023,Siobahn Keys,2127887476,http://www.grownyc.org/greenmarket,Thursday  8am-5pm,Year-round,YR,N,Y,N,Y,40.77362,-73.98156,"(40.77362, -73.98156)"
New York,Union Square Friday Greenmarket,"31 Union Square W, NW side of Park",Broadway and East 17th St,New York,NY,10003,Siobahn Keys,2127887476,https://www.grownyc.org/greenmarket,Friday  8am-6pm,Year-round,YR,N,Y,N,Y,40.73701,-73.99025,"(40.73701, -73.99025)"
New York,Union Square Monday Greenmarket,"31 Union Square W, NW side of Park",Broadway and East 17th St,New York,NY,10003,Siobahn Keys,2127887476,https://www.grownyc.org/greenmarket/manhattan-union-square-w,Monday  8am-6pm,Year-round,YR,N,Y,N,Y,40.73712,-73.99029,"(40.73712, -73.99029)"
New York,Union Square Saturday Greenmarket,"31 Union Square W , NW side of Park",Broadway and East 17th St,New York,NY,10003,Siobahn Keys,2127887476,https://www.grownyc.org/greenmarket,Saturday  8am-6pm,Year-round,YR,N,Y,N,Y,40.7371,-73.99032,"(40.7371, -73.99032)"
New York,Union Square Wednesday Greenmarkets,"31 Union Square W, NW side of Park",Broadway and East 17th St,New York,NY,10003,Siobahn Keys,2127887476,https://www.grownyc.org/greenmarket,Wednesday  8am-6pm,Year-round,YR,N,Y,N,Y,40.7371,-73.99032,"(40.7371, -73.99032)"
Niagara,Becken Farms Farm Stand,2585 Upper Mt. Rd Sanborn,2585 Upper Mt. Rd,Sanborn,NY,14132,Elaine Becken,7163164951,,Daily 9am-6pm,Year-round,YR,N,Y,N,Y,43.16823,-78.90518,"(43.16823, -78.90518)"
Niagara,Fleckensteins Farms Farm Stand,2813 Youngstown-Lockport Rd Ransomville,2813 Youngstown Lockport Road,Ransomville,NY,14131,Pete Fleckenstein,7166284841,,Daily  9am-8pm,YR,Year-round,N,N,N,Y,43.23252,-78.89288,"(43.23252, -78.89288)"
Niagara,Human Farms & Greenhouse,2853 Hess Rd. Appleton,2853 Hess Rd,Appleton,NY,14008,JoMarie Human,7165312820,,Daily 10am-6pm,June 1-December 31,M/X,Y,Y,N,Y,43.27537,-78.64954,"(43.27537, -78.64954)"
Niagara,Lockport Community Farmers' Market,57 Canal Street,57 Canal Street,Lockport,NY,14094,Grace Platt,7164340212,http://www.lockportcommunitymarket.com,"Saturday  9am-2pm  , Wednesday  2pm-6pm",June 4-October 22,M,Y,Y,N,Y,43.1705,-78.694,"(43.1705, -78.694)"
Niagara,Newfane Methodist Farmers' Market,2699 Main St.  Newfane,2699 Main St.,Newfane,NY,14108,Amy Luckman,7167787011,,Wed  4:30pm-7pm,July 6-September 28,M,Y,Y,N,Y,43.28365,-78.70879,"(43.28365, -78.70879)"
Niagara,Niagara Falls City Friday Market,19th St. & Pine Ave.,1800-1808 Pine Ave,Niagara Falls,NY,14301,Victor Muto,7167540798,https://www.niagarafallsusa.com/directory/niagara-falls-city-market/,Friday  8am-3pm,Year-round,YR,N,N,N,Y,43.09513,-79.03972,"(43.09513, -79.03972)"
Niagara,Niagara Falls City Monday Market,19th St. & Pine Ave.,1800-1808 Pine Ave,Niagara Falls,NY,14301,Victor Muto,7167540798,,Monday  9am-3pm,Year-round,YR,N,N,N,Y,43.09513,-79.03972,"(43.09513, -79.03972)"
Niagara,Niagara Falls City Wednesday Market,19th St. & Pine Ave.,1800-1808 Pine Ave,Niagara Falls,NY,14301,Victor Muto,7167540798,,Wednesday  9am-3pm,Year-round,YR,N,N,N,Y,43.09513,-79.03972,"(43.09513, -79.03972)"
Niagara,North Tonawanda City Sat Farmers' Market,Robinson Rd. & Payne Ave.,310 Robinson Road,North Tonawanda,NY,14120,Donna Braun,7166958555,,Sat 7am-1pm,Year-round,YR,Y,Y,N,Y,43.03377,-78.87021,"(43.03377, -78.87021)"
Niagara,North Tonawanda City Thurs Farmers' Market,Robinson Rd. & Payne Ave.,310 Robinson Road,North Tonawanda,NY,14120,Donna Braun,7166958555,,Thursday  7am-1pm,Year-round,YR,Y,Y,N,Y,43.03377,-78.87021,"(43.03377, -78.87021)"
Niagara,North Tonawanda City Tue Farmers' Market,Robinson Rd. & Payne Ave.,310 Robinson Road,North Tonawanda,NY,14120,Donna Braun,7166958555,,Tuesday 7am-1pm,Year-round,YR,Y,Y,N,Y,43.03377,-78.87021,"(43.03377, -78.87021)"
Niagara,Randy Becken Farm Stand,3302 Upper Mountain Rd.,3302 Upper Mountain Road,Sanborn,NY,14132,Sarah Becken,7165445255,,"Thu/Fri 10am-6pm, Sat 10am-5pm Sun 11am-3pm",August 11-November 16,M,Y,N,N,Y,43.16543,-78.86239,"(43.16543, -78.86239)"
Niagara,Schwab Farm Stand,9035 Rochester Rd. Gasport,9035 Rochester Rd,Gasport,NY,14067,Sharon Brent,7165600853,http://www.schwabsfarm.com,"Mon-Fri  8am-7pm, Sat/Sun  9am-5pm",Year-round,YR,N,Y,N,Y,43.20425,-78.52308,"(43.20425, -78.52308)"
Oneida,City of Utica Farmers' Market,Chancellor Park Elizabeth St.,Bleeker St and 1st St,Utica,NY,13501,Shannon Holmes,3152233973,,Wednesday  8am-5pm,June 29-November 2,M,N,Y,N,Y,43.10043,-75.22483,"(43.10043, -75.22483)"
Oneida,Clinton Farmers' Market,Village Green  21 West Park Row,21 West Park Row,Clinton,NY,13323,Jackie Walters,3158531735,http://www.clintonnychamber.org,Thu 10am-4pm,June 2-October 6,M,Y,N,N,Y,43.04932,-75.37881,"(43.04932, -75.37881)"
Oneida,Oneida County Public Market,"REA Wing Union Station, 321 Main St. Utica",321 Main Street,Utica,NY,13501,Elizabeth Irons,3157983639,http://www.oneidacountymarket.com,Sat 9am-1pm,May 21-October 29,P/M,Y,Y,N,Y,43.10393,-75.2239,"(43.10393, -75.2239)"
Oneida,Oneida County WINTER Public Market,"Inside Main Lobby Union Station, 321 Main Street Downtown Utica",321 Main Street,Utica,NY,13501,Elizabeth Irons,3157983639,http://www.oneidacountymarket.com,Alt Saturdays  9am-1pm,"November 5 - April 22, 2023",M/X/W/P,N,Y,N,Y,43.10393,-75.2239,"(43.10393, -75.2239)"
Oneida,Wagner Farms Farm Stand,5841 Old Oneida Rd. Rome,5841 Old Oneida Rd,Rome,NY,13440,Ronald Wagner,3153395182,http://wagnerfarmsny.com,Daily  10am-6pm,Year-round,YR,N,N,N,Y,43.1805,-75.50086,"(43.1805, -75.50086)"
Oneida,Whitesboro Farmers' Market,10 Park Ave  Village Green,8 Park Avenue,Whitesboro,NY,13492,Ron Loubier,3157361613,,Mon 2pm-7pm,June 7-September 26,M,Y,N,N,Y,43.121773,-75.291136,"(43.121773, -75.291136)"
Onondaga,Bayberry Plaza Farmers' Market,Kinney lot 7608 Oswego Rd.  Liverpool,7608 Oswego Rd,Liverpool,NY,13090,Kathy Parrotta,3156521463,http://www.bayberryplaza.com,Wed 8am-2pm,May 1-October 31,P/M,Y,N,N,Y,43.13779,-76.22602,"(43.13779, -76.22602)"
Onondaga,Central NY Saturday Regional Market Authority,2100 Park St. Syracuse,2100 Park Street,Syracuse,NY,13208,Rachael Ristau,3154228647,http://www.cnyrma.com,Sat 7am-2pm,Year-round,YR,Y,Y,Y,Y,43.07269,-76.16835,"(43.07269, -76.16835)"
Onondaga,Central NY Sunday Regional Market Authority,2100 Park St. Syracuse,2100 Park Street,Syracuse,NY,13208,Rachael Ristau,3154228647,http://www.cnyrma.com,Sun 7am-2pm,Year-round,YR,Y,Y,Y,Y,43.07269,-76.16835,"(43.07269, -76.16835)"
Onondaga,Central NY Thursday Regional Market Authority,2100 Park St. Syracuse,2100 Park Street,Syracuse,NY,13208,Rachael Ristau,3154228647,http://www.cnyrma.com,Thu 7am-2pm,Year-round,YR,Y,Y,Y,Y,43.07269,-76.16835,"(43.07269, -76.16835)"
Onondaga,Fayetteville Farmers' Market,Fayetteville Town Ctr 504 Burdick St.,504 Burdick Street,Fayetteville,NY,13066,Lacey Cashman,3013351434,http://www.fayettevillefarmersmarketcny.com,Thur 12pm-6pm,Year-round,YR,N,N,N,Y,43.02764,-76.01608,"(43.02764, -76.01608)"
Onondaga,Skaeneateles Farmer's Market-Saturday,1 East Austin St. Austin Park Pavilion,1 East Austin Street,Pavilion,NY,13152,Kimberly Kelly,3156851949,https://www.townofskaneateles.com,Sat 9:30am-12:30pm,May 26-October 13,P/M,Y,Y,N,Y,42.95091,-76.43045,"(42.95091, -76.43045)"
Onondaga,Skaneateles Farmers' Market-Thursday,1 East Austin St. Austin Park Pavilion,One E. Austin St,Skaneateles,NY,13152,Kimberly Kelly,3156851949,http://www.townofskaneateles.com,Thu 3pm-6:30pm,May 26-October 13,P/M,Y,Y,N,Y,42.95089,-76.4309,"(42.95089, -76.4309)"
Onondaga,Syracuse Eastside Neighborhood Market,Westcott Community Ctr 826 Euclid Ave,826 Euclid Ave,Syracuse,NY,13210,Jessica Ginney,3154788634,https://westcottcc.org/syracuse-eastside-farmers-market,Wed 2pm-6pm,June 1-November 1,M,Y,Y,N,Y,43.03662,-76.1192,"(43.03662, -76.1192)"
Ontario,Geneva Lakefront Farmers' Market,"Finger Lakes Welcome Center, 35 Lake Front Dr.",35 Lake Front Dr.,Geneva,NY,14456,Liz Toner,3158286588,,Sat 8am-1:30pm,May 28-October 8,M,Y,Y,N,Y,42.869,-76.98106,"(42.869, -76.98106)"
Ontario,Outback Farm Farm Market,2135 County Rd. 8 Canandaigua,2135 County Rd 8,Canandaigua,NY,14424,Marlin & Leann Sensenig,7175870079,http://www.outbackfarmmarket.com,"Mon-Fri  8am-8pm, Saturday  8am-5pm",Year-round,YR,N,N,N,Y,42.92848,-77.30929,"(42.92848, -77.30929)"
Ontario,Victor Farmers' Market,Village Hall Parking Lot 60 East Main St.,60 East Main St,Victor,NY,14564,Roseanne Turner-Adams,5859243311,http://www.victorny.org,Wed 3pm-6pm,June 1-October 26,M,Y,N,N,Y,42.98236,-77.4088,"(42.98236, -77.4088)"
Orange,Goshen Farmers' Market,"Goshen Village Square , 255 Main St.",Main St and Church St,Goshen,NY,10924,Kristen O'Donnell,8452947741,http://www.goshennychamber.com,Fri 9am-3:30pm,May 20-October 28,P/M,Y,N,N,Y,41.40219,-74.32408,"(41.40219, -74.32408)"
Orange,Healthy Orange Farmers' Market,"130 Broadway (lawn next to DMV bldg), btwn Johnston & Landers St. Newburgh",131 Broadway,Newburgh,NY,12550,Jeffrey Woody,8453606691,http://www.healthyorange.com,Tue 10am-2pm,July 5-November 1,M,Y,Y,N,Y,41.50009,-74.01254,"(41.50009, -74.01254)"
Orange,Kirby Farm Hemlock Grove Farm Stand,25 Kinne Lane Middletown,25 Kinne Lane,Middletown,NY,10940,Charles F. Kirby,8453552718,,Daily  8am-6pm,Year-round,YR,N,N,N,Y,41.40479,-74.50332,"(41.40479, -74.50332)"
Orange,Middletown Farmers' Market,Erie Way Park 1-31 Union St. Middletown,1-31 Union St.,Middletown,NY,10940,Stephania Sande,8453438075,http://www.middletownbid.org,Saturday  8am-1pm,June 4-October 22,M,N,N,N,Y,41.44814,-74.41459,"(41.44814, -74.41459)"
Orange,Newburgh Farmers Market,"107 Broadway , (Inside Lobby Winter)",95-107 Broadway,Newburgh,NY,12550,Sember Weinman,8452314424,http://www.newburghnyfarmersmarket.org,Saturday  10am-2pm,"June 12-April 30, 2022",M/X/W/P,N,Y,N,Y,41.49992,-74.0112,"(41.49992, -74.0112)"
Orange,Port Jervis Farmers' Market,1 Hammond Street,1 Hammond Street,Port Jervis,NY,12771,Mark Veeder,9178546659,http://www.pjfarmmarket.com,Sat 10am-1pm,June 4-October 29,M,Y,Y,N,Y,41.37555,-74.69237,"(41.37555, -74.69237)"
Orange,Sleepy Hills Orchard Farm Stand,1328 Route 284 Johnson,1328 Route 284,Johnson,NY,10933,Amy King,8457263797,http://www.sleepyhillsorchard.com,Daily 9am-6pm,July 7-November 23,M,Y,N,N,Y,41.35818,-74.50442,"(41.35818, -74.50442)"
Orange,Soons Orchards Farm Stand,23 Soons Circle  New Hampton,23 Soons Circle,New Hampton,NY,10958,Darcy Whyte,8453745471,http://www.soonsorchards.com,Daily 9am-6pm,Year-round,YR,Y,N,N,Y,41.40258,-74.40356,"(41.40258, -74.40356)"
Orange,Tuxedo Farmers' Market,"Tuxedo Train Station, 470 Rt. 17N",270 State Route 17,Tuxedo,NY,10987,Lorraine Barbarash,8453251278,http://www.tuxedofarmersmarket.com,Sat 9am-2pm,June 11-October 29,M,Y,N,N,Y,41.19447,-74.18447,"(41.19447, -74.18447)"
Orleans,Canal Village Farmers' Market,127 W Center St. Medina,127 W Center St.,Medina,NY,14103,Gail Miller,5857983904,,Sat 9am-2pm,Year-round,YR,Y,Y,N,Y,43.220217,-78.38851,"(43.220217, -78.38851)"
Orleans,Circle R Farm Market,13490 Roosevelt Highway Waterport,13490 Roosevelt Highway,Waterport,NY,14571,Laurie Gregori,5856824435,,Daily 9am-9pm,May 1-October 31,P/M,Y,N,N,Y,43.36049,-78.24848,"(43.36049, -78.24848)"
Orleans,Roberts Farm Market,11170 Maple Ridge Rd. Medina,11170 Maple Ridge Rd.,Medina,NY,14103,Margaret Roberts,5857984247,http://www.robertsfarmmarket.com,Mon-Sat  8am-6pm,Year-round,YR,N,N,N,Y,43.20679,-78.40098,"(43.20679, -78.40098)"
Oswego,B30 Farm Farm Stand,676 Baldwin Road  Fulton,676 Baldwin Road,Fulton,NY,13069,Timothy F. Moshier,3154399991,http://www.b30f.com,Mon-Wed  11am-5pm,Year-round,YR,N,N,N,Y,43.38285,-76.34859,"(43.38285, -76.34859)"
Oswego,Grindstone Farm Stand,780 County Route 28,780 County Route 28,Pulaski,NY,13142,Ella Gibbs,3152984139,http://grindstonefarm.com,Friday 11am-5pm,Year-round,YR,N,Y,N,Y,43.50657,-76.10799,"(43.50657, -76.10799)"
Oswego,Guppy's Berry Farm Farm Stand,512 County Route 26  West Monroe,512 County Route 26,West Monroe,NY,13617,Elaine Guppy,3156257920,http://www.guppysberryfarmllc.com,"Daily 9am-4pm, Closed Mon",July 20-September 30,M,Y,N,N,Y,43.35052,-76.03094,"(43.35052, -76.03094)"
Otsego,Cooperstown Saturday Farmers' Market,101 Main St. in Pioneer Alley near Keybank,101 Main St,Cooperstown,NY,13326,Karrie Larsson,6075476195,http://www.cooperstownfarmersmarket.org,"Sat 9am-2pm, 10am-2pm (Jan-Apr)",Year-round,YR,Y,Y,N,Y,42.70001,-74.92526,"(42.70001, -74.92526)"
Otsego,Cooperstown Tuesday Farmers' Market,101 Main Street in Pioneer Alley near Keybank,101 Main Street,Cooperstown,NY,13326,Karrie Larsson,6075476195,http://www.cooperstownfarmersmarket.org,Tue 12pm-5pm,June-September,M,Y,Y,N,Y,42.70063,-74.92524,"(42.70063, -74.92524)"
Otsego,Morris Farmers' Market,"Guy Rathbon Park 117 Main St., behind Firehouse",Main St and Church St,Morris,NY,13808,Kristina Shields,6072635203,,Thu 2:30pm-5:30pm,May 26-October 27,P/M,Y,N,N,Y,42.54813,-75.24686,"(42.54813, -75.24686)"
Otsego,Oneonta Farmers' Market,"Muller Plaza 205 Main St. (Rt. 7), May-October outside Foothills, November-April inside Foothills",205 Main Street,Oneonta,NY,13820,Meg Kennedy,6074342407,http://www.oneontafarmersmarket.org,Saturday  9am-12pm,year-round,YR,N,N,N,Y,42.45417,-75.06173,"(42.45417, -75.06173)"
Otsego,Oneonta WINTER Farmers' Market,"Foothills Performing Arts & Civic Center, 24 Market St., Oneonta",196 Main Street,Oneonta,NY,13820,Betty Lee,6072671807,http://www.oneontafarmersmarket.com,Saturday  9am-12pm,Nov 7-April 24,X/W/P,N,N,N,Y,42.45397,-75.06188,"(42.45397, -75.06188)"
Putnam,Cold Spring Farmers' Market,Boscobel House & Gardens  1601 Rt 9D Garrison,1601 State Route 9D,Garrison,NY,10516,Colin Wright,9179570695,http://www.csfarmmarket.org,Sat  8:30am-1pm,Year-round,YR,N,Y,N,Y,41.41403,-73.93809,"(41.41403, -73.93809)"
Putnam,Hudson Valley Regional Farmers' Market,15 Mt Ebo Rd South Brewster,15 Mt Ebo Drive,Brewster,NY,10509,Melissa Kamin,8458789078,http://www.hudsonvalleyfarmersmarket.org,Sunday  10am-2pm,Year-round,YR,N,N,N,Y,41.43416,-73.57263,"(41.43416, -73.57263)"
Queens,Cunningham Park Farmers' Market,"196-10 Union Tpke, Fresh Meadows, NE corner parking lot near 196th Pl",196-10 Union Turnpike,Fresh Meadows,NY,11366,Dacotah Rousseau,9149234837,http://www.downtoearthmarkets.com,Sun 9am-2pm,April 24-December 18,P/M/X,Y,Y,N,Y,40.73056,-73.77346,"(40.73056, -73.77346)"
Queens,Forest Hills Greenmarket,106-28 Queens Blvd. at 70th Ave. near Post Office,106-28 Queens Blvd.,Queens,NY,11375,Siobahn Keys,2127887476,http://www.grownyc.org/greenmarket/queens/forest-hills,Sunday  8am-2pm,Year-Round,YR,N,Y,N,Y,40.72193,-73.84676,"(40.72193, -73.84676)"
Queens,Jackson Heights Greenmarket,79-09 34th Ave.,78-99 34th Ave,Jackson heights,NY,11372,Siobahn Keys,2127887476,http://www.grownyc.org/greenmarket/queens/jackson-heights,Sunday  8am-2pm,Year-round,YR,N,Y,N,Y,40.7535,-73.88791,"(40.7535, -73.88791)"
Queens,Jamaica Hospital Farm Stand,134-20 Jamaica Ave. Jamaica,134-20 Jamaica Ave.,Jamaica,NY,11418,Javier or Estella Perez,8453810399,,Friday 10:30am-3:30pm,June 17-November 4,M,N,N,N,Y,40.7024,-73.81767,"(40.7024, -73.81767)"
Queens,Queens County Farm-Jamaica Hospital Farm Stand,134-20 Jamaica Ave. Richmond Hill,134-20 Jamaica Avenue,Richmond Hill,NY,11418,Daniel Morales,9179162834,http://www.queensfarm.org,Fri 10:30am-3:30pm,June 17-November 4,M,Y,Y,N,Y,40.70134,-73.81631,"(40.70134, -73.81631)"
Queens,Queens County Farm Museum-Borough Hall,120-55 Queens Blvd. Kew Gardens,120-55 Queens Boulevard,Queens,NY,11424,Daniel Morales,9179162834,http://www.queensfarm.org,Thu 10am-3pm,June 30-November 3,M,Y,Y,N,Y,40.71395,-73.82972,"(40.71395, -73.82972)"
Queens,Queens County Farm Museum Farm Stand,73-50 Little Neck Pkwy Floral Park,73-50 Little Neck Parkway,Queens,NY,11004,Daniel Morales,9179162834,http://www.queensfarm.org,"Wed-Fri 11am-3pm, Sun 11am-5pm",May 11-November 19,P/M,Y,Y,N,Y,40.74818,-73.72124,"(40.74818, -73.72124)"
Queens,Sunnyside Greenmarket,41-15 Skillman Ave. at 42nd St,Skillman Ave and 42nd St,Sunnyside,NY,11104,Siobahn Keys,2127887476,http://www.grownyc.org/greenmarket/queens/sunnyside,Saturday  8am-2pm,Year-round,YR,N,Y,N,Y,40.74694,-73.92139,"(40.74694, -73.92139)"
Rensselaer,Capital Roots Produce Market,594 River Street Troy,594 River Street,Troy,NY,12180,Audrey Bridge,5182748685,http://www.capitalroots.org,Mon-Fri  9am-5:30pm,Year-round,YR,N,Y,N,Y,42.74208,-73.68525,"(42.74208, -73.68525)"
Rensselaer,Kristy's Barn Farm Stand,2385 Brookview Rd. Castleton,2385 Brookview Road,Castleton,NY,12033,Kenneth Johnson,5184776250,http://www.kristysbarn.com,"Mon-Sat 9am-6pm, Sun 10am-5pm",May 1-November 30,P/M,Y,N,N,Y,42.56495,-73.70495,"(42.56495, -73.70495)"
Rensselaer,Troy Waterfront Farmers' Market,"River Front Park River St Troy, (moved fromRussell Sage College lot)",282 River St,Troy,NY,12180,Stephen Ridler,5187084216,http://www.troymarket.org,Saturday  9am-2pm,May 7-October 29,P/M,N,Y,N,Y,42.73214,-73.6905,"(42.73214, -73.6905)"
Rensselaer,Troy Waterfront WINTER Farmers' Market,"new 2022 location, Troy Atrium, 49 4th St, Troy, NY 12180",865 2nd Avenue,Troy,NY,12182,Stephen Ridler,5187084216,http://www.troymarket.org,Saturday  9am-2pm,"Dec 5-March 27, 2021",X/W/P,N,Y,Y,Y,42.73196,-73.68893,"(42.73196, -73.68893)"
Rensselaer,Veggie Mobile-Kennedy Towers Apts,2100 6th Ave. Troy,2100 6th Avenue,Troy,NY,12180,Audrey Bridge,5182748685,http://www.capitalroots.org,Thu 2:45pm-3:45pm,Year-round,YR,N,Y,N,Y,42.73495,-73.68493,"(42.73495, -73.68493)"
Rensselaer,Veggie Mobile-Renwyck Place,18 4th Ave. Rensselaer,18 4th Ave,Rensselaer,NY,12144,Audrey Bridge,5182748685,http://www.capitalroots.org,Thu 11:45am-12:30pm,Year-round,YR,N,Y,N,Y,42.63925,-73.73936,"(42.63925, -73.73936)"
Rensselaer,Veggie Mobile Sprout-Barker Park,Corner 3rd & State St. Troy,3rd and State St.,Troy,NY,12180,Audrey Bridge,5182748685,http://www.capitalroots.org,Tue 11:30am-12pm,Year-round,YR,N,Y,N,Y,42.73006,-73.69055,"(42.73006, -73.69055)"
Rensselaer,Veggie Mobile Sprout-Burns Apts,720 Federal St. Troy,720 Federal Street,Troy,NY,12180,Audrey Bridge,5182748685,http://www.capitalroots.org,Thu  12:30pm-1:15pm,Year-round,YR,N,Y,N,Y,42.733148,-73.684555,"(42.733148, -73.684555)"
Rensselaer,Veggie Mobile Sprout-Edward A. Kane Apts,115th Street & 2nd Ave Troy,5 115th Street,Troy,NY,12182,Audrey Bridge,5182748685,http://www.capitalroots.org,Thu 11am-11:45am,Year-round,YR,N,Y,N,Y,42.7748,-73.67761,"(42.7748, -73.67761)"
Rensselaer,Veggie Mobile Sprout-Lansingburgh Apts,41 114th Street Troy,41 114th Street,Troy,NY,12182,Audrey Bridge,5182748685,http://www.capitalroots.org,Wed 2:30pm-3:15pm,Year-round,YR,N,Y,N,Y,42.77223,-73.67258,"(42.77223, -73.67258)"
Rensselaer,Veggie Mobile Sprout-Monument Square Apts,2  1st Street #1 Troy,1st Street #1,Troy,NY,12180,Audrey Bridge,5182748685,http://www.captialroots.org,Tue 12:15pm-12:45pm,Year-round,YR,N,Y,N,Y,42.73123,-73.69261,"(42.73123, -73.69261)"
Rensselaer,Veggie Mobile Sprout-O'Neil Apts,2121 6th Ave. Troy,2121 6th Ave.,Troy,NY,12180,Audrey Bridge,5182748685,http://www.capitalroots.org,Wed 3:30pm-4:15pm,Year-round,YR,N,Y,N,Y,42.73436,-73.68587,"(42.73436, -73.68587)"
Rensselaer,Veggie Mobile Sprout-Public Library Sr. Ctr,1501 Broadway #1 Watervliet,1501 Broadway,Watervliet,NY,12189,Audrey Bridge,5182748685,http://www.capitalroots.org,Thu 2:30pm-3:30pm,Year-round,YR,N,Y,N,Y,42.72629,-73.70008,"(42.72629, -73.70008)"
Rensselaer,Veggie Mobile-Van Rensselaer Heights,460 Forbes Ave. Rensselaer,460 Forbes Avenue,Rensselaer,NY,12144,Audrey Bridge,5182748685,http://www.capitalroots.org,Thu 10:45am-11:15am,Year-round,YR,N,Y,N,Y,42.65953,-73.73008,"(42.65953, -73.73008)"
Richmond,Saint George Greenmarket,35 Hyatt St. at St. Mark's Place Staten Island,St Marks Pl and Hyatt St,Staten Island,NY,10301,Siobahn Keys,2127887476,http://www.grownyc.org/greenmarket/staten-island/saint-george,Saturday  9am-1pm,Year-round,YR,N,Y,N,Y,40.64159,-74.07791,"(40.64159, -74.07791)"
Rockland,Cropsey Community Farm Stand,220 South Little Tor Rd New City,220 South Little Tor Rd,New City,NY,10956,Sophie Vranian,8456343167,http://www.rocklandfarm.org,"Fri 4pm-6pm, Sat 9am-1pm",July 11-October 21,M,Y,N,N,Y,41.13216,-74.0019,"(41.13216, -74.0019)"
Rockland,Haverstraw Farmers' Market,40 New Main St. Haverstraw Village Hall,New Main St and Maple Ave,Haverstraw,NY,10927,Elaine Fernandez,8454290300,,Sun 9am-1pm,June 12-November 27,M,Y,N,N,Y,41.19639,-73.96645,"(41.19639, -73.96645)"
Rockland,Nyack Farmers' Market,119 Main St. Municipal Parking Lot,Main St and Franklin St,Nyack,NY,10960,Roger Cohen,8453532221,http://www.nyackchamber.org,Thursday  8am-2pm,Year-round,YR,N,Y,N,Y,41.09154,-73.9216,"(41.09154, -73.9216)"
Rockland,Piermont WINTER Farmers' Market,Piermont Ave. (Library),527 Piermont Ave,Piermont,NY,10968,Joe Serra,9143934533,https://www.facebook.com/piermontfm,Sunday  10am-2pm,January 9-May 15,X/W,N,N,N,Y,41.04158,-73.91632,"(41.04158, -73.91632)"
Saratoga,Gansevoort Farmers' Market,Gansevoort Village Park  Catherine St.,Main St. at Catherine St.,Gansevoort,NY,12831,Linda Gifford,5187961686,,Tue 3pm-6pm,June 21-October 25,M,Y,N,N,Y,43.19612,-73.65167,"(43.19612, -73.65167)"
Saratoga,Halfmoon Farmers' Market,1 Halfmoon Town Plaza,2 Halfmoon Town Plaza,Halfmoon,NY,12065,Ross MacNeil,5183717410,,Wed 3pm-7pm,Year-round,YR,Y,N,N,Y,42.85348,-73.72559,"(42.85348, -73.72559)"
Saratoga,My Other Garden Farm Stand,2192 Cook Road Ballston Lake,2192 Cook Road,Ballston Lake,NY,12019,Maria Matthews,5188825416,,"Daily 10am-6pm, Closed Tue  Thu 10am-12pm",June 1-November 30,M,Y,N,N,Y,42.97542,-73.99127,"(42.97542, -73.99127)"
Saratoga,Saratoga WINTER Farmers' Market,"Wilton Mall 3065 NY-50 Saratoga Springs, Food Court/Bow Tie Cinemas entrance",3065 NY-50,Saratoga Springs,NY,12866,Toni Nastasi,5189269962,http://www.saratogafarmersmarket.org,Saturday  9:30am-1:30pm,November -April,M/X/W/P,N,Y,Y,Y,43.06464,-73.79044,"(43.06464, -73.79044)"
Saratoga,Veggie Mobile Sprout-John S. Moore,2 Harris Ave. Mechanicville,2 Harris Avenue,Mechanicville,NY,12118,Audrey Bridge,5182748685,http://www.capitalroots.org,Fri 3:30pm-4:00pm,Year-round,YR,N,Y,N,Y,42.89934,-73.69122,"(42.89934, -73.69122)"
Saratoga,Veggie Mobile Sprout-Mechanicville Sr Center,178 North Main Street Mechanicville,178 North Main Street,Mechanicville,NY,12118,Audrey Bridge,5182748685,http://www.capitalroots.org,Fri 2:30pm-3:15pm,Year-round,YR,N,Y,N,Y,42.90829,-73.68374,"(42.90829, -73.68374)"
Schenectady,Schenectady Greenmarket,Franklin St and Jay St. near City Hall,Franklin St and Jay St,Schenectady,NY,12305,Cheryl Whilby,5189860318,http://www.schenectadygreenmarket.org,Sun 10am-2pm,April 3-November 20,P/M,Y,Y,N,Y,42.81372,-73.94015,"(42.81372, -73.94015)"
Schenectady,Schenectady WINTER Greenmarket,"Proctors Theater, 432 State St.",432 State St.,Schenectady,NY,12305,Erika Baer,5189860318,http://www.schenectadygreenmarket.com,Sunday  10am-2pm,"December 5-April 24, 2022",X/W/P,N,Y,N,Y,42.812373,-73.941802,"(42.812373, -73.941802)"
Schenectady,Veggie Mobile-Father Leo Obrien,3151 Marra Lane Schenectady,3151 Marra Lane,Schenectady,NY,12303,Audrey Bridge,5182748685,http://www.capitalroots.org,Mon 1pm-1:45pm,Year-round,YR,N,Y,N,Y,42.76062,-73.94004,"(42.76062, -73.94004)"
Schenectady,Veggie Mobile-Hillside View Apts,602 Craig Street  Schenectady,602 Craig Street,Schenectady,NY,12307,Audrey Bridge,5182748685,http://www.captialroots.org,Friday 2:15pm-3pm,Year-round,YR,N,Y,N,Y,42.80323,-73.93741,"(42.80323, -73.93741)"
Schenectady,Veggie Mobile-Hometown Health Ctr,1044 State Street Schenectady,1044 State Street,Schenectady,NY,12307,Audrey Bridge,5182748685,http://www.capitalroots.org,Mon 2pm-2:45pm,Year-round,YR,N,Y,N,Y,42.8014,-73.9278,"(42.8014, -73.9278)"
Schenectady,Veggie Mobile-Schenectady DSS,797 Broadway Schenectady,797 Broadway,Schenectady,NY,12305,Audrey Bridge,5182748685,http://www.capitalroots.org,Mon  3pm-3:45pm,Year-round,YR,N,Y,N,Y,42.80375,-73.95193,"(42.80375, -73.95193)"
Schenectady,Veggie Mobile Sprout-Schenectady Day Nursery,25 Lafayette St Schenectady,25 Lafayette St,Schenectady,NY,12307,Audrey Bridge,5182748685,http://www.captialroots.org,Monday 4pm-4:30pm,Year-round,YR,N,Y,N,Y,42.81479,-73.93633,"(42.81479, -73.93633)"
Schenectady,Veggie Mobile-Summit Towers,720 Albany St. Schenectady,720 Albany street,Schenectady,NY,12307,Audrey Bridge,5182748685,http://www.capitalroots.org,Fri 1:30pm-2pm,Year-round,YR,N,Y,N,Y,42.80923,-73.93822,"(42.80923, -73.93822)"
Schenectady,Veggie Mobile-Ten Eyck Apts,375 Broadway Schenectady,375 Broadway,Schenectady,NY,12305,Audrey Bridge,5182748685,http://www.capitalroots.org,Fri 3:15pm-4pm,Year-round,YR,N,Y,N,Y,42.80919,-73.94511,"(42.80919, -73.94511)"
Schoharie,Barber Family Farm Stand,3617 State Route 30 Middleburgh,3617 State Route 30,Fulton,NY,12122,Sarah Barber,5188275454,http://www.barbersfarm.com,"Wed-Sun 9am-5:30pm, Winter hours change",Year-round,YR,Y,Y,N,Y,42.58123,-74.39189,"(42.58123, -74.39189)"
Schoharie,Parsons Vegetable Farm Farm Stand,756 US Highway 20 Sharon Springs,756 US Highway 20,Sharon Springs,NY,13459,Kenyon Parsons,5182842330,,Daily  10am-6pm,Year-round,YR,N,N,N,Y,42.78332,-74.60004,"(42.78332, -74.60004)"
Schoharie,Schoharie Valley Farms Farm Stand,"""The Carrot Barn"", 5605 State Route 30",5605 State Route 30,Schoharie,NY,12157,Shirley Ball,5182957139,http://www.schoharievalleyfarms.com,Daily 9am-6pm,Year-round,YR,Y,Y,N,Y,42.68477,-74.29692,"(42.68477, -74.29692)"
Steuben,Bath Wednesday Farmers' Market,Pulteney Square Park Steuben St.,Steuben St and Liberty St,Bath,NY,14810,Hazel Buck,6077943494,,Wed 9am-2pm,May 4-October 26,P/M,Y,Y,N,Y,42.33353,-77.31842,"(42.33353, -77.31842)"
Steuben,Dave's Produce Farm Stand,6719 State Route 415 S Bath,6719 State Route 415 South,Bath,NY,14810,David Hyer,6077947043,,"Mon-Fri 10am-6pm, Sat 9am-5pm Sun 10am-5pm",May 1-December 24,P/M/X,Y,N,N,Y,42.32583,-77.29073,"(42.32583, -77.29073)"
St. Lawrence,Canton Friday Farmers' Market,Village Green Park 17 Park St @ Main St.,Village Green Park  Main St.,Canton,NY,13617,Carlene Doane,3156058133,,Fri 9am-2pm,May 27-October 28,P/M,Y,Y,N,Y,44.59564,-75.16728,"(44.59564, -75.16728)"
St. Lawrence,Canton Tuesday Farmers' Market,Village Green Park 17 Park st at Main St.,Main St and Park St,Canton,NY,13617,Carlene Doane,3156058133,,Tue 9am-2pm,May 27-October 28,P/M,Y,Y,N,Y,44.59564,-75.16921,"(44.59564, -75.16921)"
St. Lawrence,Gouverneur Farmers' Market,East Main Street Park,East Main Street and Village Park,Gouverneur,NY,13642,Linda E. Brown,3152870384,http://www.gouverneurchamber.net,Thu 9am-2pm,June 2-October 27,M,Y,Y,N,Y,44.33871,-75.45766,"(44.33871, -75.45766)"
St. Lawrence,Hammond Farmers' and Artisans Market,"Hammond Museum , 14 North Main St. Route 37",14 North Main Street,Hammond,NY,13646,Lori Thistle,3153245032,,Wed 3pm-6pm,June 15-September 14,M,Y,Y,N,Y,44.45118,-75.69312,"(44.45118, -75.69312)"
St. Lawrence,Martin's Farm Stand,11 Needham Rd. Potsdam,11 Needham Rd.,Potsdam,NY,13676,Daniel Martin,3152651246,http://www.martinsfarmstand.com,"Daily 10am-6pm, Closed Sun",Year-Round,YR,Y,Y,N,Y,44.67107,-74.90401,"(44.67107, -74.90401)"
Suffolk,Andrews Family Farm Farm Stand,1038 Sound Ave  Calverton,1038 Sound Ave,Calverton,NY,11933,Rose Andrews,6319290038,,Daily 9am-5pm,April 21-October 23,P/M,Y,N,N,Y,40.94993,-72.80243,"(40.94993, -72.80243)"
Suffolk,Bethel Hobbs Community Farm Stand,178 Oxhead Rd.  Centereach,178 Oxhead Road,Centereach,NY,11720,Ann Pellegrino,6317741556,http://www.hobbsfarm.info,Sat 10am-3pm,June 18-October 15,P/M,Y,N,N,Y,40.872,-73.09635,"(40.872, -73.09635)"
Suffolk,East Hampton Farmers' Market,Herrick Park  Parking lot side,60 Spinner Lane,East Hampton,NY,11937,Katherine Plumb,6317259133,,"Fri 9am-1pm, Sun 10am-2pm (9/11 - 11/27)",May 13-September 9,P/M,Y,Y,N,Y,40.9779,-72.17646,"(40.9779, -72.17646)"
Suffolk,Huntington Village Farmers' Market,"228 Main St Huntington, Elm St Parking Lot",228 Main St,Huntington,NY,11743,Lona Graepel,6319442661,http://www.longislandfarmersmarkets.com,Sun 7:30am-12:30pm,June 5-Nov 20,M,N,N,N,Y,40.87163,-73.42456,"(40.87163, -73.42456)"
Suffolk,Islip Farmers' Market,"Town Hall Pkg lot , 655 Montauk Hwy Rt 27A",655 Main Street,Islip,NY,11751,Ethel Terry,6313233653,http://www.longislandgrowersmarket.com,Sat 7am-12pm,June 4-November 19,M,Y,N,N,Y,40.72975,-73.21077,"(40.72975, -73.21077)"
Suffolk,Patchogue (Sun) Farmers' Market,"Division & Ocean St., Patchogue LIRR, East Side Parking Lot",210 S. Ocean Ave.,Patchogue,NY,11772,Ethel Terry,6313233653,http://www.longislandgrowersmarket.com,Sun 9am-2pm,June 5-November 6,M,Y,N,N,Y,40.76165,-73.01337,"(40.76165, -73.01337)"
Suffolk,Seps Family Farm Farm Stand,7395 Main Rd. East Marion,7395 Main Rd,East Marion,NY,11939,Peter and Kathryn Sepenoski,6314771583,,Daily 9am-5pm,June 1-September 1,M,Y,N,N,Y,41.12365,-72.34486,"(41.12365, -72.34486)"
Sullivan,Callicoon Farmers' Market,Callicoon Creek Park 23 Dorrer Drive,23 Dorrer Drive,Callicoon,NY,12723,Kaylin Joslin,6076436667,http://www.callicoonfarmersmarket.org,Sun 11am-2pm,Year-round,YR,Y,N,N,Y,41.76559,-75.05797,"(41.76559, -75.05797)"
Sullivan,Fare View Gardens Farm Stand,584 Budd Rd. Woodbourne,Budd Road,Woodbourne,NY,12788,Ryan Mitro,2072101733,,"Daily 9am-6pm , closed Friday",Year-round,YR,N,N,N,Y,41.77132,-74.56862,"(41.77132, -74.56862)"
Sullivan,Liberty Farmers' Market,119 N Main Street Creekside Park,119 N Main St,Liberty,NY,12754,Beth Scullion,8454391230,,Fri 3pm-6pm,June 17-September 16,M,Y,Y,N,Y,41.80129,-74.74684,"(41.80129, -74.74684)"
Sullivan,Narrowsburg Farmers Market,7 Erie Avenue Narrowsburg,7 Eric Ave,Narrowsburg,NY,12764,Greg Swartz,5709820050,,Saturday  10am-1pm,May 14-October 29,P/M,N,N,N,Y,41.6052,-75.06393,"(41.6052, -75.06393)"
Tioga,Candor Farmers Market,Town Hall 101 Owego St.,101 Owego Rd,Candor,NY,13743,Joellen Riggs,6077684072,http://www.candorfarmersmarket.org,Thu 3:30pm-6:30pm,June 16-September 1,M,Y,Y,N,Y,42.23249,-76.33317,"(42.23249, -76.33317)"
Tompkins,Ithaca Farmers' Market (East Hill Wed),East Hill Plaza 380 Pine Tree Rd.,380 Pine Tree Road,Ithaca,NY,14850,Kelly Sauve,6072737109,http://www.ithacamarket.com,Wed 4pm-7pm,May 4-October 26,P/M,Y,Y,N,Y,42.4385,-76.46559,"(42.4385, -76.46559)"
Tompkins,Ithaca Farmers' Market (Steamboat Sat),"Steamboat Landing, 545 Third St. Extension off Rt. 13",545 Third Street,Ithaca,NY,14850,Kelly Sauve,6072737109,http://www.ithacamarket.com,Sat 9am-3pm,April 2-December 17,P/M/X,Y,Y,N,Y,42.44958,-76.50785,"(42.44958, -76.50785)"
Tompkins,Ithaca Farmers' Market (Steamboat Sun),"Steamboat Landing, 545 Third St. Extension off Rt. 13",545 Third Street,Ithaca,NY,14850,Kelly Sauve,6072737109,http://www.ithacamarket.com,Sun 10am-2pm,April 2-December 17,P/M/X,Y,Y,N,Y,42.44958,-76.50782,"(42.44958, -76.50782)"
Tompkins,Ithaca WINTER Farmers' Market,"Triphammer Plaza, 2255 Triphammer Road",2255 Triphammer Road,Ithaca,NY,14850,Kelly Sauve,6072737109,http://www.ithacamarket.com,Saturday  10:30am-2pm,January 8-March 26,W/P,N,Y,Y,Y,42.44097,-76.51093,"(42.44097, -76.51093)"
Tompkins,Jasper Meadows Farm Stand,26 Palmear Road Freeville,26 Palmear Road,Freeville,NY,13068,Charles and Madalyn Alridge,6077084327,,Mon/Wed/Fri 4pm-7pm,May 20-October 31,M,Y,N,N,Y,42.52078,-76.35776,"(42.52078, -76.35776)"
Ulster,Kingston Farmers' Market,285 Wall Street,Wall St and John St,Kingston,NY,12401,Laura Crimmins,6462624672,http://www.kingstonfarmersmarket.org,Sat 9am-2pm,May 7-December 17,P/M,Y,Y,N,Y,41.93384,-74.01968,"(41.93384, -74.01968)"
Ulster,Kingston WINTER Farmers' Market,"County Courthouse lot  285 Wall St, Jan/Feb only:  Senate Garage 4 N. Front St.",272 Wall Street,Kingston,NY,12401,Laura Crimmins,6462624672,http://www.kingstonfarmersmarket.org,Alt Saturdays  10am-2pm,December 4-April 23,X/W/P,N,Y,Y,Y,41.93286,-74.01884,"(41.93286, -74.01884)"
Ulster,Kingston YMCA Farm Stand,"507 Broadway, Winter moves into Lobby",507 Broadway,Kingston,NY,12401,Kaycee Wimbish,8453322927,http://www.kingstonymcafarmproject.org,"Tue 10-12:30pm, Thu 3:30pm-6pm","June 2-February 25, 2023",M/X/W,Y,Y,N,Y,41.92805,-74.0007,"(41.92805, -74.0007)"
Ulster,Woodstock Farm Festival Farmers' Market,20 Mountainview Ave parking lot,20 Mountainview Avenue,Woodstock,NY,12498,Rachel Lauginiger,7173432787,http://www.woodstockfarmfestival.com,Wednesday  3pm-7pm,May 18-October 12,P/M,N,Y,N,Y,42.04018,-74.11797,"(42.04018, -74.11797)"
Warren,Glens Falls Farmers' Market,South Street Market Pavilion,25 South Street,Glens Falls,NY,12801,Richard Sandora,5186810438,http://www.glensfallsfarmersmarket.com,Saturday  8am-12pm,May 7-October 29,P/M,N,Y,N,Y,43.3099,-73.64699,"(43.3099, -73.64699)"
Warren,Glens Falls WINTER Farmers' Market,"Aviation Mall, 578 Aviation Rd, Queensbury, NY 12804","578 Aviation Rd,, NY",Queensbury,NY,12804,Richard Sandora,5186810438,http://www.glensfallsfarmersmarket.com,Saturday  9am-12pm,"November 6-April 30, 2022",M/X/W/P,N,Y,N,Y,43.30817,-73.6419,"(43.30817, -73.6419)"
Washington,Cambridge Valley Farmers' Market,24 South Park St.,24 South Park Street,Cambridge,NY,12816,Debby Jaffe,5186778128,http://www.cambridgevalleyfarmersmarket.com,Sun 10am-1pm,May 22-October 30,P/M,Y,N,N,Y,43.02833,-73.38093,"(43.02833, -73.38093)"
Washington,Cambridge Valley WINTER Farmers' Market,"Brieman Building , Park Place",Park Place,Cambridge,NY,12816,Lindsay Fisk,5185389467,,Sunday  12pm-2pm,Nov 6-December 18,M/X,N,N,N,Y,43.02872,-73.37955,"(43.02872, -73.37955)"
Washington,Ft Edward Canal St. Mktplace Farmers' Market,63 Canal St.  Fort Edward,63 Canal Street,Fort Edward,NY,12828,Peter Williams,5187473237,http://www.canalstreetmarketplace.org,Thursday  4pm-7pm,June 2-September 29,M,N,N,N,Y,43.26875,-73.58419,"(43.26875, -73.58419)"
Washington,Slateville Farm Stand,304 County Route 28  Granville NY,304 County Route 28,Granville,NY,12832,Heather Magee,8602480336,http://www.slateville.com,Fri-Sun 10a-4p,June 3-October 30,M,Y,Y,N,Y,43.34386,-73.29593,"(43.34386, -73.29593)"
Wayne,LaMora Farms Farm Stand,5925 Ontario Center Rd.  Ontario,5925 Ontario Center Road,Ontario,NY,14519,Earl LaMora,3155210349,http://www.lamorafarms.com,Daily 7am-7pm,June 10-November 1,M,Y,N,N,Y,43.21573,-77.30373,"(43.21573, -77.30373)"
Wayne,Lyons Farmers' Market,Village Square 32 Church St.,32 Church Street,Lyons,NY,14489,Linda Guest,3158821521,http://www.lyonsny.com/farmers-market.html,Sat 8am-12pm,June 18-October 29,M,Y,N,N,Y,43.06336,-76.99243,"(43.06336, -76.99243)"
Wayne,Sodus Farmers' Market,58 W. Main St.  Sodus Methodist Church,58 West Main St,Sodus,NY,14551,Sandy Hall,3154838029,http://www.sutmc.org/sodus-farmers-market,Wed 2:30pm-6pm,June 15-October 12,M,Y,Y,N,Y,43.23615,-77.06587,"(43.23615, -77.06587)"
Wayne,The Apple Shed Farm Stand,"3391 Fairville Maple Ridge Rd.  , Newark",3391 Fairville Maple Ridge Rd,Newark,NY,14513,Barbara Wells,3153316294,http://www.theappleshed.com,Daily 10am-5pm,August 15-December 23,M/X,Y,N,N,Y,43.12967,-77.09774,"(43.12967, -77.09774)"
Westchester,Bowen Farm Stand,14 N Columbus Ave. Mt. Vernon,14 North Columbus Ave.,Mount Vernon,NY,10553,Ruth Crosby,9144821749,,"Tue-Fri 10am-8pm, Sat 10am-6pm",July 15-November 30,M,N,N,N,Y,40.9125,-73.82372,"(40.9125, -73.82372)"
Westchester,Larchmont Farmers' Market,"122 Myrtle Blvd. Larchmont, Metro North lot off Chatsworth Ave.",Metro-North parking deck off Chatsworth Avenue,Larchmont,NY,10538,Dacotah Rousseau,9149234837,http://www.downtoearthmarkets.com,Sun 8:30am-1pm,April 23-December 17,P/M/X,Y,Y,N,Y,40.93322,-73.75951,"(40.93322, -73.75951)"
Westchester,New Rochelle Farmers' Market,"20 Sicard Ave, Thomas Paine Cottage Museum",20 Sicard Ave,New Rochelle,NY,10804,Dacotah Rousseau,9149234837,http://www.downtoearthmarkets.com,Fri 9am-2pm,June 3-October 28,M,Y,Y,N,Y,40.93407,-73.79099,"(40.93407, -73.79099)"
Westchester,Ossining Farmers' Market,100 Main Street @ Spring St. Market Square,100 Main Street,Ossining,NY,10562,Dacotah Rousseau,9149234837,http://www.downtoearthmarkets.com,Sat 8:30am-1pm,May 7-December 17,P/M/X,Y,Y,N,Y,41.16105,-73.86351,"(41.16105, -73.86351)"
Westchester,Pleasantville Farmers' Market,"Memorial Plaza parking lot, off Manville Rd. next to Train Station",Manville Rd and Wheeler Ave,Pleasantville,NY,10570,Steven Bates,9142054545,http://www.pleasantvillefarmersmarket.org,Saturday  8:30am-1pm,Year-round,YR,N,Y,N,Y,41.13526,-73.79218,"(41.13526, -73.79218)"
Westchester,Rye Farmers' Market,"9 Theodore Fremd Ave. Rye , behind Purchase Street Stores",9 Theodore Fremd Ave,Rye,NY,10580,Dacotah Rousseau,9149234837,http://www.downtoearthmarkets.com,Sun 8:30am-1pm,May 8-December 4,P/M/X,Y,Y,N,Y,40.98485,-73.68464,"(40.98485, -73.68464)"
Westchester,TaSH Farmers' Market,Patriots Park Route 9  Sleepy Hollow,Patriots Park Route 9,Sleepy Hollow,NY,10591,Linda Eder,9144717437,http://www.tashfarmersmarket.org,Sat 8:30am-12:30pm,May 28-November 19,P/M,Y,Y,N,Y,41.08525,-73.85924,"(41.08525, -73.85924)"
Westchester,TaSH Winter Farmers' Market,"250 West Main St Tarrytown, (Recreation Center Parking Lot)",250 West Main St,Tarrytown,NY,10591,Linda Eder,9144717437,http://www.tashfarmersmarket.org,"Sat 8:30a-12:30p, Alternate Sat",January 8-May 7,W/P,N,Y,Y,Y,41.07716,-73.86799,"(41.07716, -73.86799)"
Westchester,White Plains (International) Wed Farmers' Market,125 Court St. btwn Martine Ave. & Main St.,125 Court St,White Plains,NY,10601,Sebastien Bensidoun,3125025603,http://www.whiteplainsfarmersmarket.com,Wed 8:30am-3:30pm,April 20-November 23,P/M,Y,N,N,Y,41.02944,-73.76659,"(41.02944, -73.76659)"
Wyoming,Farm & Artisan Market at the Villa,Artisan Villa  140 North Main St.  Warsaw,140 North Main Street,Warsaw,NY,14569,Lisa Seewaldt,5857868766,http://www.marketatthevilla.com,Wed 2pm-6pm,May 11-October 26,P/M,Y,Y,N,Y,42.74311,-78.13256,"(42.74311, -78.13256)"
Wyoming,Perry Farmers' Market,Perry Festival Plaza  S. Main Street,Main St and Borden Ave,Perry,NY,14530,Rick Hauser,5859913893,http://www.perryfarmersmarket.com,Sat 8:30am-12:30pm,June 18-September 24,M,Y,N,N,Y,42.71842,-78.00218,"(42.71842, -78.00218)"
Wyoming,Plato Dale Farm Stand,5401 Curriers Road  Arcade NY,5401 Curriers Road,Arcade,NY,14009,Kent Miller,5854571358,http://platodalefarm.com,9am-6pm  Daily,Year-Round,YR,N,N,N,Y,42.63228,-78.4172,"(42.63228, -78.4172)"
Yates,Yates County Co-op Farm & Craft Market,"""Penn Yan Farmers Market"", Jacob Street Penn Yan",Jacob Street,Penn Yan,NY,14527,Rivka Davis,6072435234,,Saturday  8:00am-12:30pm,June 11 - October 8,P/M,N,N,N,Y,42.66095,-77.05365,"(42.66095, -77.05365)"
